Index,Facility_Name,Source_Facility_Type,ODCAF_Facility_Type,Provider,Unit,Street_No,Street_Name,Postal_Code,City,Prov_Terr,Source_Format_Address,CSD_Name,CSDUID,PRUID,Latitude,Longitude
10,12 Service Battalion Museum,military museum or fort,museum,canadian museums association,..,5500,no 4 rd,V6X 3L5,richmond,bc,5500 no. 4 rd the sherman armoury richmond british columbia v6x 3l5 canada,Richmond,5915015,59,49.1763542,-123.112783
15,15th Field Artillery Regiment Museum And Archives,museum/gallery,museum,vancouver,..,2025,11th av w,V6J 2C7,vancouver,bc,2025 w 11th av vancouver bc v6j 2c7,Vancouver,5915022,59,49.261938,-123.151123
24,221A Artist Run Centre,museum/gallery,museum,vancouver,..,221,georgia st e,V6A 1Z6,vancouver,bc,221 e georgia st vancouver bc v6a 1z6,Vancouver,5915022,59,49.278786,-123.098796
41,7302754 Canada Inc,artist making fine art and exhibiting in galleries,artist,burnaby,..,6909,mckay av,..,burnaby,bc,6909 mckay av,Burnaby,5915025,59,49.2210003,-123.0091848
97,Abc Heritage Preschool And Child Care,preschool and out of school care,heritage or historic site,township of langley,..,7949,208 st,..,township of langley,bc,..,Langley,5915001,59,49.14709735,-122.6467963
123,Adamsons Heritage Nursery Ltd,nursery,heritage or historic site,township of langley,..,1832,240 st,..,township of langley,bc,..,Langley,5915001,59,49.0347018,-122.5538744
140,Agassiz Library,fraser valley regional library,library or archives,government of british columbia,..,7140,cheam ave,V0M 1A0,north vancouver,bc,7140 cheam ave,Squawkum Creek 3,5909882,59,49.243554,-121.992562
157,Ahva Gallery,museum/gallery,gallery,vancouver,..,6398,university blvd,..,vancouver,bc,6398 university blvd vancouver bc,Greater Vancouver A,5915020,59,49.2639124,-123.2549451
213,Aldergrove Festival Days Society,non profit community events society,festival site,township of langley,..,6795,256 st,..,township of langley,bc,..,Langley,5915001,59,49.12579987,-122.5153837
215,Aldergrove Library,fraser valley regional library,library or archives,government of british columbia,..,26770,29th avenue,V4W 3B8,vancouver,bc,26770-29th avenue,Langley,5915001,59,49.055541,-122.481863
254,Alliance For Arts And Culture,museum/gallery,museum,vancouver,..,938,howe st,V6Z 1N9,vancouver,bc,938 howe st vancouver bc v6z 1n9,Vancouver,5915022,59,49.2803099,-123.1228359
268,Amelia Douglas Gallery,..,gallery,new westminster,..,..,..,..,new-westminster,bc,..,New Westminster,5915029,59,49.20354979,-122.9128583
286,Angie Au Hemphill Studio,individual artists,artist,new westminster,..,..,..,..,new-westminster,bc,..,New Westminster,5915029,59,49.21315638,-122.9153803
317,Anvil Centre/Museum And Archives,city cultural,museum,new westminster,..,777,columbia st,..,new-westminster,bc,..,New Westminster,5915029,59,49.20177737,-122.911292
318,Anza Club (Australia-New Zealand Association),theatre/performance,theatre/performance and concert hall,vancouver,..,3,8th av w,V5Y 1M8,vancouver,bc,3 w 8th av vancouver bc v5y 1m8,Vancouver,5915022,59,49.263974,-123.105108
337,Architectural Institute of BC Gallery,museum/gallery,gallery,vancouver,..,440,cambie st,V6B 2N5,vancouver,bc,440 cambie st vancouver bc v6b 2n5,Vancouver,5915022,59,49.2817199,-123.1095005
358,Archives of Anglican Provincial Synod of British Columbia And Diocese of New Westminster,historical society,library or archives,canadian museums association,..,1410,nanton ave,V6H 2E2,vancouver,bc,1410 nanton ave. vancouver british columbia v6h 2e2 canada,Vancouver,5915022,59,49.2476604,-123.1545938
394,Art Beatus,museum/gallery,museum,vancouver,..,808,nelson st,V6Z 2H2,vancouver,bc,808 nelson st vancouver bc v6z 2h2,Vancouver,5915022,59,49.2800409,-123.1249139
395,Art Club/Bard On Beach Production Centre Theatre,theatre/performance,theatre/performance and concert hall,vancouver,..,162,1st av w,V5Y 1A4,vancouver,bc,162 w 1st av vancouver bc v5y 1a4,Vancouver,5915022,59,49.270223,-123.108576
397,Art Emporium,museum/gallery,museum,vancouver,..,2928,granville st,V6H 3J7,vancouver,bc,2928 granville st vancouver bc v6h 3j7,Vancouver,5915022,59,49.2593906,-123.1383072
446,Art Works Gallery,museum/gallery,gallery,vancouver,..,225,smithe st,V6B 4X7,vancouver,bc,225 smithe st vancouver bc v6b 4x7,Vancouver,5915022,59,49.2775077,-123.1165781
452,Arteclectica Gallery,office for web based art gallery,gallery,township of langley,..,9472,waska st,..,township of langley,bc,..,Langley,5915001,59,49.17478795,-122.5857293
463,Artist In Residence,attraction,artist,maple ridge,..,23740,fern cres,..,maple ridge,bc,..,Maple Ridge,5915075,59,49.23767967,-122.5644971
479,Artists In the Boro,individual artists,artist,new westminster,..,920,ewen avenue,..,new-westminster,bc,c/o 920 ewen avenue,New Westminster,5915029,59,49.18572558,-122.9425957
487,Arts & Cultural Centre,..,art or cultural centre,port moody,..,2425,st-johns street,..,port moody,bc,2425 st johns street,Port Moody,5915043,59,49.27638531,-122.8571362
489,Arts Club Theatre - Granville Island Stage,theatre/performance,theatre/performance and concert hall,vancouver,..,1585,johnston st,V6H 3R9,vancouver,bc,1585 johnston st vancouver bc v6h 3r9,Vancouver,5915022,59,49.272124,-123.134362
490,Arts Club Theatre - Revue Stage,theatre/performance,theatre/performance and concert hall,vancouver,..,1601,johnston st,V6H 3R9,vancouver,bc,1601 johnston st vancouver bc v6h 3r9,Vancouver,5915022,59,49.272235,-123.13467
491,Arts Club Theatre - Stanley Industrial Alliance Stage,theatre/performance,theatre/performance and concert hall,vancouver,..,2750,granville st,V6H 3J3,vancouver,bc,2750 granville st vancouver bc v6h 3j3,Vancouver,5915022,59,49.261346,-123.1382118
506,Artspeak Gallery,museum/gallery,gallery,vancouver,..,233,carrall st,V6B 2J2,vancouver,bc,233 carrall st vancouver bc v6b 2j2,Vancouver,5915022,59,49.282941,-123.104299
507,Artstarts In Schools,museum/gallery,museum,vancouver,..,808,richards st,V6B 3A7,vancouver,bc,808 richards st vancouver bc v6b 3a7,Vancouver,5915022,59,49.2799985,-123.1179808
532,Astorino's Hall,theatre/performance,theatre/performance and concert hall,vancouver,..,1739,venables st,V5L 2H3,vancouver,bc,1739 venables st vancouver bc v5l 2h3,Vancouver,5915022,59,49.2769146,-123.0698555
565,Audain Gallery,museum/gallery,gallery,vancouver,..,149,hastings st w,V6B 1H4,vancouver,bc,149 w hastings st vancouver bc v6b 1h4,Vancouver,5915022,59,49.282395,-123.108715
594,Ayden Gallery,museum/gallery,gallery,vancouver,..,88,pender st w,V6B 6N9,vancouver,bc,88 w pender st vancouver bc v6b 6n9,Vancouver,5915022,59,49.2809655,-123.1071802
602,Back Gallery Project,museum/gallery,gallery,vancouver,..,602,hastings st e,V6A 1R1,vancouver,bc,602 e hastings st vancouver bc v6a 1r1,Vancouver,5915022,59,49.2811369,-123.0913998
607,Baf Studio,museum/gallery,museum,vancouver,..,108,broadway av e,V5T 1V9,vancouver,bc,108 e broadway av vancouver bc v5t 1v9,Vancouver,5915022,59,49.262669,-123.102505
669,Basic Inquiry,museum/gallery,museum,vancouver,..,1011,main st,V6A 4L4,vancouver,bc,1011 main st vancouver bc v6a 4l4,Vancouver,5915022,59,49.2758184,-123.1000334
688,Bau-Xi Gallery,museum/gallery,gallery,vancouver,..,3045,granville st,V6H 3J9,vancouver,bc,3045 granville st vancouver bc v6h 3j9,Vancouver,5915022,59,49.258496,-123.1391799
696,BC Farm Machinery & Agricultural Museum Association,museum to display agricultiural & historical artifacts,museum,township of langley,..,9131,king st,..,township of langley,bc,..,Langley,5915001,59,49.16829541,-122.57544
699,BC Golf House Society,sports museum/hall of fame,museum,canadian museums association,..,2545,blanca street,V6R 4N1,vancouver,bc,2545 blanca street vancouver british columbia v6r 4n1 canada,Greater Vancouver A,5915020,59,49.2643712,-123.2154904
701,BC Regiment (Duke of Connaught's Own) Museum,community/regional museum historic site-building or park military museum or fort,museum,canadian museums association,..,620,beatty st,V6B 2L9,vancouver,bc,620 beatty st vancouver british columbia v6b 2l9 canada,Vancouver,5915022,59,49.27937945,-123.1107111
703,BC Sports Hall of Fame Museum,museum/gallery,museum,vancouver,..,777,pacific blvd s,V6B 4Y8,vancouver,bc,777 pacific blvd s vancouver bc v6b 4y8,Vancouver,5915022,59,49.27619,-123.110438
710,Bearga Gallery,"teddy bear exhibition, sales & classes",gallery,township of langley,..,9234,glover rd,..,township of langley,bc,..,Langley,5915001,59,49.17032581,-122.5773185
715,Beaty Biodiversity Museum,museum/gallery,museum,vancouver,..,2212,main mall,V6T 1Z4,vancouver,bc,2212 main mall vancouver bc v6t 1z4,Greater Vancouver A,5915020,59,49.2634318,-123.251485
738,Bel Art Gallery,arts,gallery,district of north vancouver,..,..,..,..,vancouver,bc,..,North Vancouver,5915046,59,49.33747064,-123.1023904
744,Bella Coola Branch,vancouver island regional library,library or archives,government of british columbia,..,450,mackenzie st,V0T 1C0,burnaby,bc,450 mackenzie st,Central Coast E,5945014,59,52.37201,-126.757864
1749,Big Lake,cariboo regional district library system,library or archives,government of british columbia,..,4056,lakeview rd,V0L 1G0,vancouver,bc,4056 lakeview rd,Cariboo F,5941014,59,52.41529,-121.847499
1759,Bill Reid Centre For Northwest Coast Studies At Simon Fraser University,art gallery community/regional museum,museum,canadian museums association,..,8888,university drive,V5A 1S6,burnaby,bc,8888 university drive burnaby british columbia v5a 1s6 canada,Burnaby,5915025,59,49.2799979,-122.9156806
1760,Bill Reid Gallery,museum/gallery,gallery,vancouver,..,639,hornby st,V6C 2G3,vancouver,bc,639 hornby st vancouver bc v6c 2g3,Vancouver,5915022,59,49.284308,-123.119819
1795,Birthplace of BC Gallery,home art gallery & gifts,gallery,township of langley,..,9054,glover rd,..,township of langley,bc,..,Langley,5915001,59,49.16712676,-122.5808057
1822,Bloedel Conservatory,museum/gallery,museum,vancouver,..,4600,cambie st,V5Y 2M5,vancouver,bc,4600 cambie st vancouver bc v5y 2m5,Vancouver,5915022,59,49.242077,-123.113759
1840,Bob Prittie Metrotown Library,..,library or archives,city of burnaby,..,..,..,..,burnaby,bc,..,Burnaby,5915025,59,49.22815036,-123.0063797
1889,Bowser Branch,vancouver island regional library,library or archives,government of british columbia,..,6996,island highway west,V0R 1G0,surrey,bc,6996 island highway west,Nanaimo H,5921036,59,49.435724,-124.67665
1916,Brenda Lee Fairfax,individual artists,artist,new westminster,..,..,..,..,new-westminster,bc,..,New Westminster,5915029,59,49.20563967,-122.923408
1936,Britannia,..,library or archives,vancouver,..,1661,napier st,..,vancouver,bc,1661 napier st,Vancouver,5915022,59,49.2756,-123.0738
1940,Britannia Shipyards National Historic Site,historic site-building or park,heritage or historic site,canadian museums association,..,5180,water drive west,V7E 6P3,richmond,bc,5180 west water drive richmond british columbia v7e 6p3 canada,Richmond,5915015,59,49.1203872,-123.1693557
1942,British Columbia History of Nursing Society,library and/or archives historical society other,library or archives,canadian museums association,..,..,..,V6R 4P2,vancouver,bc,rpo sasamat box 72082 vancouver british columbia v6r 4p2 canada,Port Moody,5915043,59,49.31993995,-122.8890636
1964,Brookswood Library,..,library or archives,township of langley,..,..,..,..,langley,bc,..,Langley,5915001,59,49.07501894,-122.6682286
1991,Bully's Studios Inc,individual artists,artist,new westminster,..,67,sixth street,..,new-westminster,bc,67 sixth street,New Westminster,5915029,59,49.20479302,-122.9094657
2015,Burnaby Art Gallery,..,gallery,burnaby,..,..,..,..,burnaby,bc,..,Burnaby,5915025,59,49.24092931,-122.9713007
2017,Burnaby Village Museum,community/regional museum interpretation centre,museum,canadian museums association,..,6501,deer avenue,V5G 3T6,burnaby,bc,6501 deer lake avenue burnaby british columbia v5g 3t6 canada,Burnaby,5915025,59,49.2394477,-122.9672589
2022,Burns Lake Public Library,burns lake public library,library or archives,government of british columbia,..,585,government street,V0J 1E0,vancouver,bc,585 government street,Burns Lake,5951022,59,54.231245,-125.764894
2090,Cameron,burnaby public library,library or archives,government of british columbia,..,9523,cameron street,V3J 1L6,coquitlam,bc,9523 cameron street,Burnaby,5915025,59,49.253462,-122.899745
2093,Cameron Library,..,library or archives,city of burnaby,..,..,..,..,burnaby,bc,..,Burnaby,5915025,59,49.25381086,-122.8985944
2102,Campbell River Branch,vancouver island regional library,library or archives,government of british columbia,..,1240,shopper's row,V9W 2C8,vancouver,bc,1240 shopper's row,Campbell River,5924034,59,50.027378,-125.245379
2169,Canadian Lacrosse Hall of Fame & Museum,historical society sports museum/hall of fame,museum,canadian museums association,..,777,columbia street,V3M 1B6,new-westminster,bc,777 columbia street new westminster british columbia v3m 1b6 canada,New Westminster,5915029,59,49.2016302,-122.9117763
2180,Canadian Museum Flight Association,flight museum,museum,township of langley,3,5333,216 st,..,township of langley,bc,..,Langley,5915001,59,49.09920599,-122.6260122
2185,Canadian Museum of Flight Association,aeronautics and space museum,museum,canadian museums association,3,5333,216th street,V2Y 2N3,langley,bc,hangar #3-5333 216th street langley british columbia v2y 2n3 canada,Langley,5915001,59,..,..
2196,Canadian Music Centre (BC Region),museum/gallery,museum,vancouver,..,837,davie st,V6Z 1B7,vancouver,bc,837 davie st vancouver bc v6z 1b7,Vancouver,5915022,59,49.278055,-123.127484
2207,Canadian Society of Asian Arts,art gallery other,gallery,canadian museums association,..,5655,cambie street,V5Z 3A4,vancouver,bc,suite 260 5655 cambie street vancouver british columbia v5z 3a4 canada,Vancouver,5915022,59,49.217061,-123.1169866
2217,Candice James,individual artists,artist,new westminster,..,..,..,..,new-westminster,bc,..,New Westminster,5915029,59,49.21466644,-122.9229655
2243,Capilano College Performing Arts Theatre,arts,theatre/performance and concert hall,district of north vancouver,..,..,..,..,vancouver,bc,..,North Vancouver,5915046,59,49.31615035,-123.0202274
2244,Capilano University Archives,library and/or archives historical society,library or archives,canadian museums association,..,2055,purcell way,V7J 3H5,vancouver,bc,2055 purcell way north vancouver british columbia v7j 3h5 canada,North Vancouver,5915046,59,49.317592,-123.0210051
2292,Carnegie Centre Theatre,theatre/performance,theatre/performance and concert hall,vancouver,..,401,main st,V6A 2T7,vancouver,bc,401 main st vancouver bc v6a 2t7,Vancouver,5915022,59,49.281052,-123.1001272
2330,Catriona Jeffries Gallery,museum/gallery,gallery,vancouver,..,274,1st av e,V5T 1A6,vancouver,bc,274 e 1st av vancouver bc v5t 1a6,Vancouver,5915022,59,49.2687198,-123.0980394
2335,Cbc Studio 700,theatre/performance,theatre/performance and concert hall,vancouver,..,700,hamilton,V6B 2R5,vancouver,bc,700 hamilton vancouver bc v6b 2r5,Vancouver,5915022,59,49.279079,-123.114496
2355,Centennial Theatre,arts,theatre/performance and concert hall,district of north vancouver,..,..,..,..,vancouver,bc,..,North Vancouver,5915051,59,49.33075439,-123.0715514
2359,Central Branch,..,library or archives,vancouver,..,350,georgia st w,..,vancouver,bc,350 w georgia st,Vancouver,5915022,59,49.2797,-123.1156
2370,Central Saanich Branch,greater victoria public library,library or archives,government of british columbia,..,1209,clarke road,V8M 1P8,surrey,bc,1209 clarke road,Central Saanich,5917015,59,48.576061,-123.449061
2377,Centre A - Centre For Contemporary Asian Art,museum/gallery,museum,vancouver,..,268,keefer st,V6A 1X6,vancouver,bc,268 keefer st vancouver bc v6a 1x6,Vancouver,5915022,59,49.280067,-123.098181
2574,Chali-Rosso Gallery,museum/gallery,gallery,vancouver,..,2250,granville st,V6H 4H7,vancouver,bc,2250 granville st vancouver bc v6h 4h7,Vancouver,5915022,59,49.2657529,-123.1384021
2581,Champlain Heights,..,library or archives,vancouver,..,7110,kerr st,..,vancouver,bc,7110 kerr st,Vancouver,5915022,59,49.2191,-123.0402
2586,Chan Centre For the Performing Art - Concert Hall,theatre/performance,theatre/performance and concert hall,vancouver,..,6265,crescent rd,V6T 1Z1,vancouver,bc,6265 crescent rd vancouver bc v6t 1z1,Greater Vancouver A,5915020,59,49.269523,-123.255108
2592,Chapel Arts,theatre/performance,theatre/performance and concert hall,vancouver,..,304,dunlevy st,V6A 3Y4,vancouver,bc,304 dunlevy st vancouver bc v6a 3y4,Vancouver,5915022,59,49.2821671,-123.0953265
2610,Charles H. Scott Gallery,museum/gallery,gallery,vancouver,..,1399,johnston st,V6H 2R9,vancouver,bc,1399 johnston st vancouver bc v6h 2r9,Vancouver,5915022,59,49.270485,-123.132876
2644,Chinese Canadian Military Museum,military museum or fort,museum,canadian museums association,..,555,columbia street,V6A 4H5,vancouver,bc,555 columbia street vancouver british columbia v6a 4h5 canada,Vancouver,5915022,59,49.2797742,-123.1023264
2646,Chinese Cultural Centre Museum And Archives,museum/gallery,museum,vancouver,..,555,columbia st,V6A 4H5,vancouver,bc,555 columbia st vancouver bc v6a 4h5,Vancouver,5915022,59,49.279894,-123.102448
2692,Cineplex Odeon International Village Cinemas,theatre/performance,theatre/performance and concert hall,vancouver,..,88,pender st w,V6B 6N9,vancouver,bc,88 w pender st vancouver bc v6b 6n9,Vancouver,5915022,59,49.280474,-123.106621
2694,Circle Craft Co-Operative Shop & Gallery,museum/gallery,gallery,vancouver,..,1666,johnston st,V6H 3S2,vancouver,bc,1666 johnston st vancouver bc v6h 3s2,Vancouver,5915022,59,49.272369,-123.135541
2721,City of Richmond Archives,library and/or archives,library or archives,canadian museums association,..,7700,minoru gate,V6Y 1R9,richmond,bc,7700 minoru gate richmond british columbia v6y 1r9 canada,Richmond,5915015,59,49.1641205,-123.1411334
2725,City of Vancouver Archives,museum/gallery,museum,vancouver,..,1150,chestnut st,V6J 3J9,vancouver,bc,1150 chestnut st vancouver bc v6j 3j9,Vancouver,5915022,59,49.276084,-123.142663
2729,Cityscape Community Art Space,arts,miscellaneous,district of north vancouver,..,..,..,..,vancouver,bc,..,North Vancouver,5915051,59,49.31386319,-123.076908
2781,Coastal Peoples Fine Arts Gallery Gastown,museum/gallery,gallery,vancouver,..,312,water st,V6B 1B6,vancouver,bc,312 water st vancouver bc v6b 1b6,Vancouver,5915022,59,49.2843539,-123.109198
2782,Coastal Peoples Fine Arts Gallery Yaletown,museum/gallery,gallery,vancouver,..,1024,mainland st,V6B 2T4,vancouver,bc,1024 mainland st vancouver bc v6b 2t4,Vancouver,5915022,59,49.2762084,-123.119591
2800,Colbourne House/ Marpole Museum,museum/gallery,museum,vancouver,..,8743,marine dr,V6P 6A5,vancouver,bc,8743 sw marine dr vancouver bc v6p 6a5,Vancouver,5915022,59,49.2064788,-123.1423354
2823,Collingwood,..,library or archives,vancouver,..,2985,kingsway,..,vancouver,bc,2985 kingsway,Vancouver,5915022,59,49.2362,-123.0426
2879,Coquitlam Heritage Society Operating Mackin House,community/regional museum historical society,museum,canadian museums association,..,1116,brunette avenue,V3K 1G3,coquitlam,bc,1116 brunette avenue coquitlam british columbia v3k 1g3 canada,Coquitlam,5915034,59,49.2385727,-122.8619326
2880,Coquitlam Public Library,..,library or archives,government of british columbia,..,575,poirier st,V7E 4N7,north vancouver,bc,575 poirier st.,Coquitlam,5915034,59,49.25344945,-122.8457007
2941,Cowichan Branch,vancouver island regional library,library or archives,government of british columbia,..,2687,james street,V9L 2X5,vancouver,bc,2687 james street,North Cowichan,5919008,59,48.7821,-123.704142
2945,Craft Council of British Columbia Gallery,museum/gallery,gallery,vancouver,..,1386,cartwright st,V6H 3R8,vancouver,bc,1386 cartwright st vancouver bc v6h 3r8,Vancouver,5915022,59,49.269837,-123.13479
2997,Cumberland Branch,vancouver island regional library,library or archives,government of british columbia,..,2724,dunsmuir avenue,V0R 1S0,vancouver,bc,2724 dunsmuir avenue,Cumberland,5926014,59,49.619054,-125.028427
3023,Cynthia Jennifer Smith,individual artists,artist,new westminster,..,..,..,..,new-westminster,bc,..,New Westminster,5915029,59,49.20545725,-122.9422878
3060,David M. Adams,individual artists,artist,new westminster,..,302,fifth street,..,new-westminster,bc,302 fifth street,New Westminster,5915029,59,49.20940208,-122.914006
3061,David Mcfarland,individual artists,artist,new westminster,..,..,..,..,new-westminster,bc,..,New Westminster,5915029,59,49.21288017,-122.899074
3078,Dee Spencer Native Art,individual artists,artist,new westminster,..,..,..,..,new-westminster,bc,..,New Westminster,5915029,59,49.19867539,-122.9205677
3079,Deep Cove Heritage Society,historical society,heritage or historic site,canadian museums association,..,4360,gallant avenue,V7G 1L2,vancouver,bc,4360 gallant avenue north vancouver british columbia v7g 1l2 canada,North Vancouver,5915046,59,49.3269993,-122.9501363
3080,Deep Cove Shaw Theatre,arts,theatre/performance and concert hall,district of north vancouver,..,..,..,..,vancouver,bc,..,North Vancouver,5915046,59,49.32698715,-122.9500893
3094,Delphi Custom Theatres Inc,custom audio video installations,theatre/performance and concert hall,township of langley,..,3650,203a st,..,township of langley,bc,..,Langley,5915001,59,49.06830874,-122.6597014
3096,Delta Museum And Archives Society,library and/or archives community/regional museum historical society,museum,canadian museums association,..,4918,delta st,V4K 2V2,delta,bc,4918 delta st delta british columbia v4k 2v2 canada,Delta,5915011,59,49.09240685,-123.0868134
3135,Djavad Mowafaghian Cinema,theatre/performance,theatre/performance and concert hall,vancouver,..,149,hastings st w,V6B 1H4,vancouver,bc,149 w hastings st vancouver bc v6b 1h4,Vancouver,5915022,59,49.282364,-123.108528
3140,Doctor Vigari Gallery,museum/gallery,gallery,vancouver,..,1816,commercial dr,V5N 4A3,vancouver,bc,1816 commercial dr vancouver bc v5n 4a3,Vancouver,5915022,59,49.2683622,-123.0692806
3143,Dogma Portraits,individual artists,artist,new westminster,..,..,..,..,new-westminster,bc,..,New Westminster,5915029,59,49.21222676,-122.9205007
3171,Dorothy Somerset Studio Theatre,theatre/performance,theatre/performance and concert hall,vancouver,..,6361,university blvd,V6T 1Z2,vancouver,bc,6361 university blvd vancouver bc v6t 1z2,Greater Vancouver A,5915020,59,49.2643788,-123.2543722
3183,Douglas Reynolds Gallery,museum/gallery,gallery,vancouver,..,2335,granville st,V6H 3G4,vancouver,bc,2335 granville st vancouver bc v6h 3g4,Vancouver,5915022,59,49.2648423,-123.1385998
3184,Douglas Udell Gallery,museum/gallery,gallery,vancouver,..,1558,6th av w,V6J 1R2,vancouver,bc,1558 w 6th av vancouver bc v6j 1r2,Vancouver,5915022,59,49.2661804,-123.1399725
3202,Dr. Sun Yat-Sen Classical Chinese Garden,museum/gallery,museum,vancouver,..,578,carrall st,V6B 5K2,vancouver,bc,578 carrall st vancouver bc v6b 5k2,Vancouver,5915022,59,49.279983,-123.104168
3232,Dunbar,..,library or archives,vancouver,..,4515,dunbar st,..,vancouver,bc,4515 dunbar st,Vancouver,5915022,59,49.246,-123.1856
3235,Dundarave Print Workshop & Gallery,museum/gallery,gallery,vancouver,..,1640,johnston st,V6H 3S2,vancouver,bc,1640 johnston st vancouver bc v6h 3s2,Vancouver,5915022,59,49.2721848,-123.1353489
3251,Dynamo Arts Association,museum/gallery,museum,vancouver,..,30,6th ave e,V5T 1J4,vancouver,bc,30 e 6th ave vancouver bc v5t 1j4,Vancouver,5915022,59,49.2653017,-123.1040486
3255,Eagle Spirit Gallery,museum/gallery,gallery,vancouver,..,1803,maritime mews,V6H 3W7,vancouver,bc,1803 maritime mews vancouver bc v6h 3w7,Vancouver,5915022,59,49.2710507,-123.136077
3379,Eileen Kernaghan,individual artists,artist,new westminster,..,..,..,..,new-westminster,bc,..,New Westminster,5915029,59,49.21059429,-122.9085843
3395,Elissa Cristall Galleries,museum/gallery,gallery,vancouver,..,2239,granville st,V6H 3G1,vancouver,bc,2239 granville st vancouver bc v6h 3g1,Vancouver,5915022,59,49.2655257,-123.1385822
3396,Elizabeth Elwood,individual artists,artist,new westminster,..,..,..,..,new-westminster,bc,bernie legge theatre,New Westminster,5915029,59,49.21423991,-122.9032852
3424,Emily Carr Institute of Art + Design 1612 Gallery,museum/gallery,gallery,vancouver,..,1612,3rd av w,V6J 1K2,vancouver,bc,1612 w 3rd av vancouver bc v6j 1k2,Vancouver,5915022,59,49.2688004,-123.1411548
3451,Equinox Gallery,museum/gallery,gallery,vancouver,..,525,great way,V5T 1E1,vancouver,bc,525 great northern way vancouver bc v5t 1e1,Vancouver,5915022,59,49.267609,-123.09226
3478,Esquimalt Branch,greater victoria public library,library or archives,government of british columbia,..,1231,esquimalt road,V9A 3P1,fort langley,bc,1231 esquimalt road,Esquimalt,5917040,59,48.429873,-123.409324
3492,Euro Artistic Metals Ltd,gutter installations contractor,artist,township of langley,..,21446,83b ave,..,township of langley,bc,..,Langley,5915001,59,49.15456337,-122.6289841
3506,Evergreen Cultural Centre Society,art gallery exhibition or cultural centre music/performing arts,gallery,canadian museums association,..,1205,pine way,V3B 7Y3,coquitlam,bc,1205 pine tree way coquitlam british columbia v3b 7y3 canada,Coquitlam,5915034,59,49.2853872,-122.7909589
3541,Famous Players Limited Partnership (Theatre),theatre in colossus,theatre/performance and concert hall,township of langley,..,20090,91a ave,..,township of langley,bc,..,Langley,5915001,59,49.16790012,-122.6652397
3542,Fanclub,theatre/performance,theatre/performance and concert hall,vancouver,..,1050,granville st,V6Z 1L2,vancouver,bc,1050 granville st vancouver bc v6z 1l2,Vancouver,5915022,59,49.2784977,-123.1235587
3543,Fang-Chih Liao,artist & personal art instruction,artist,burnaby,..,9985,david dr,..,burnaby,bc,9985 david dr,Burnaby,5915025,59,49.2564138,-122.8937098
3560,Federation Gallery,museum/gallery,gallery,vancouver,..,1241,cartwright st,V6H 4B7,vancouver,bc,1241 cartwright st vancouver bc v6h 4b7,Vancouver,5915022,59,49.269582,-123.13225
3561,Fei & Milton Wong Experimental Theatre,theatre/performance,theatre/performance and concert hall,vancouver,..,149,hastings st w,V6B 1H4,vancouver,bc,149 w hastings st vancouver bc v6b 1h4,Vancouver,5915022,59,49.282402,-123.10859
3569,Ferry Building Gallery,arts,gallery,district of north vancouver,..,..,..,..,vancouver,bc,..,West Vancouver,5915055,59,49.32701461,-123.1578963
3756,Field Contemporary,museum/gallery,museum,vancouver,..,17,broadway w,V5Y 1P1,vancouver,bc,17 w broadway vancouver bc v5y 1p1,Vancouver,5915022,59,49.2630895,-123.1058083
3762,Film2Frame Studio Gallery,..,gallery,new westminster,..,655,front street,..,new-westminster,bc,655 front street,New Westminster,5915029,59,49.20233668,-122.9086714
3774,Firehall Arts Centre,theatre/performance,theatre/performance and concert hall,vancouver,..,280,cordova st e,V6A 1L3,vancouver,bc,280 e cordova st vancouver bc v6a 1l3,Vancouver,5915022,59,49.282083,-123.097921
3775,Firehall Branch,vancouver public library,library or archives,government of british columbia,..,1455,10th avenue west,V6H 1J8,surrey,bc,1455 west 10th avenue,Vancouver,5915022,59,49.262674,-123.137671
3874,Fort Langley National Historic Site of Canada,historic site-building or park,heritage or historic site,canadian museums association,..,23433,mavis ave,V1M 2R5,fort langley,bc,23433 mavis ave. fort langley british columbia v1m 2r5 canada,Langley,5915001,59,49.1674941,-122.5719671
3881,Fort Nelson Public Library,fort nelson public library,library or archives,government of british columbia,..,5315,50th avenue s,V0C 1R0,vancouver,bc,5315 - 50th avenue s,Northern Rockies,5959007,59,58.80442,-122.706149
3895,Fort St. James Centennial Library,fort st. james centennial library,library or archives,government of british columbia,..,425,manson street,V0J 1P0,coquitlam,bc,425 manson street,Fort St. James,5951013,59,54.445248,-124.255224
3899,Fort St. John Public Library Association,fort st. john public library association,library or archives,government of british columbia,..,10015,100th avenue,V1J 1Y7,coquitlam,bc,10015 - 100th avenue,Fort St. John,5955034,59,56.246452,-120.848044
3920,Fortune Sound Club,theatre/performance,theatre/performance and concert hall,vancouver,..,147,pender st e,V6A 1T5,vancouver,bc,147 e pender st vancouver bc v6a 1t5,Vancouver,5915022,59,49.2806621,-123.1008605
3946,"Franci Louann, Poet, Mentor, Proofreader",individual artists,artist,new westminster,..,..,..,..,new-westminster,bc,..,New Westminster,5915029,59,49.2133457,-122.9257951
3969,Fraser River Discovery Centre,interpretation centre,art or cultural centre,canadian museums association,..,788,quayside drive,V3M 6Z6,new-westminster,bc,788 quayside drive new westminster british columbia v3m 6z6 canada,New Westminster,5915029,59,49.20049735,-122.9100439
3973,Fraserview,..,library or archives,vancouver,..,1950,argyle drive,..,vancouver,bc,1950 argyle drive,Vancouver,5915022,59,49.2197,-123.0669
3979,Frederic Wood Theatre,theatre/performance,theatre/performance and concert hall,vancouver,..,6354,crescent rd,V6T 1Z2,vancouver,bc,6354 crescent rd vancouver bc v6t 1z2,Greater Vancouver A,5915020,59,49.268215,-123.2572691
3987,Freeflow Scenics Studio,individual artists,artist,new westminster,..,..,..,..,new-westminster,bc,..,New Westminster,5915029,59,49.22821217,-122.8960336
4023,Gabor Gasztonyi Studio & Gallery,..,gallery,new westminster,..,..,..,..,new-westminster,bc,..,New Westminster,5915029,59,49.21008247,-122.9341905
4152,Galiano Island Community Library,pender island public library,library or archives,government of british columbia,..,2540,sturdies bay road,V0N 1P0,vancouver,bc,2540 sturdies bay road,Southern Gulf Islands,5917029,59,48.879085,-123.318603
4167,Gallery 295,museum/gallery,gallery,vancouver,..,295,2nd ave e,V5T 1B8,vancouver,bc,295 e 2nd ave vancouver bc v5t 1b8,Vancouver,5915022,59,49.2680645,-123.0981191
4177,Gallery Gachet,museum/gallery,gallery,vancouver,..,88,cordova st e,V6A 1K2,vancouver,bc,88 e cordova st vancouver bc v6a 1k2,Vancouver,5915022,59,49.2821,-123.102645
4180,Gallery Jones,museum/gallery,gallery,vancouver,..,258,1st av e,V5T 1A6,vancouver,bc,258 e 1st av vancouver bc v5t 1a6,Vancouver,5915022,59,49.269727,-123.098623
4181,Gallery Jones,museum/gallery,gallery,vancouver,..,1725,3rd av w,V6J 1K7,vancouver,bc,1725 w 3rd av vancouver bc v6j 1k7,Vancouver,5915022,59,49.2689012,-123.1438197
4183,Gallery of BC Ceramics,museum/gallery,gallery,vancouver,..,1359,cartwright st,V6H 3R7,vancouver,bc,1359 cartwright st vancouver bc v6h 3r7,Vancouver,5915022,59,49.270046,-123.134283
4194,Gallery-The Spa Ltd,all other personal services,gallery,new westminster,..,621,belmont st,V3M 5Z8,new-westminster,bc,a 621 belmont stnew westminster bc v3m 5z8,New Westminster,5915029,59,..,..
4198,Gam Gallery,museum/gallery,gallery,vancouver,..,110,hastings st e,V6N 1N4,vancouver,bc,110 e hastings st vancouver bc v6n 1n4,Vancouver,5915022,59,49.2813343,-123.101858
4253,Gillian Wright,individual artists,artist,new westminster,..,..,..,..,new-westminster,bc,..,New Westminster,5915029,59,49.20580087,-122.9159098
4288,Gms Observatory,museum/gallery,museum,vancouver,..,1100,chestnut st,V6J 3J9,vancouver,bc,1100 chestnut st vancouver bc v6j 3j9,Vancouver,5915022,59,49.276261,-123.144436
4299,Golden Branch,okanagan regional library district,library or archives,government of british columbia,..,819,park avenue,V0A 1H0,vancouver,bc,819 park avenue,Golden,5939007,59,51.297745,-116.964029
4310,Gordon Smith Gallery of Canadian Art,art gallery,gallery,canadian museums association,..,2121,lonsdale avenue,V7M 2K6,vancouver,bc,2121 lonsdale avenue north vancouver british columbia v7m 2k6 canada,North Vancouver,5915046,59,49.3387479,-123.0719629
4361,Granisle Public Library,granisle public library,library or archives,government of british columbia,..,2,village avenue,V0J 1W0,burnaby,bc,#2 village square - mcdonald avenue,Granisle,5951032,59,54.88542,-126.204987
4368,Granville Fine Arts,museum/gallery,museum,vancouver,..,2447,granville st,V6H 3G5,vancouver,bc,2447 granville st vancouver bc v6h 3g5,Vancouver,5915022,59,49.2638926,-123.1386339
4369,Granville Island Gallery,museum/gallery,gallery,vancouver,..,1494,old st,V6H 3S6,vancouver,bc,1494 old bridge st vancouver bc v6h 3s6,Vancouver,5915022,59,49.270213,-123.134769
4387,Greater Vancouver Regional District Parks Department,historic site-building or park park,heritage or historic site,canadian museums association,..,4330,kingsway street,V5H 2G8,burnaby,bc,4330 kingsway street burnaby british columbia v5h 2g8 canada,Burnaby,5915025,59,49.2565552,-123.0069167
4431,Grunt Gallery,museum/gallery,gallery,vancouver,..,350,2nd av e,V5T 4R8,vancouver,bc,350 e 2nd av vancouver bc v5t 4r8,Vancouver,5915022,59,49.26676,-123.09715
4442,Guildford,surrey public library,library or archives,government of british columbia,..,15105,105th avenue,V3R 7G8,maple ridge,bc,15105 - 105th avenue,Surrey,5915004,59,49.193243,-122.803609
4446,Gulf of Georgia Cannery National Historic Site,historic site-building or park,heritage or historic site,canadian museums association,..,12138,4th ave,V7E 3J1,richmond,bc,gulf of georgia cannery society 12138 4th ave richmond british columbia v7e 3j1 canada,Richmond,5915015,59,49.12474915,-123.1869615
4448,Guy Allen,individual artists,artist,new westminster,..,..,..,..,new-westminster,bc,apt. 1516,New Westminster,5915029,59,49.22354832,-122.9164876
4454,H.R. Macmillan Space Centre,museum/gallery,museum,vancouver,..,1100,chestnut st,V6J 3J9,vancouver,bc,1100 chestnut st vancouver bc v6j 3j9,Vancouver,5915022,59,49.276361,-123.144299
4506,Haney House Museum,historic site-building or park,museum,canadian museums association,..,11617,224th street,V2X 5Z7,maple ridge,bc,11617-224th street maple ridge british columbia v2x 5z7 canada,..,..,59,..,..
4528,Harrison Galleries,museum/gallery,gallery,vancouver,..,901,homer st,V6B 2W6,vancouver,bc,901 homer st vancouver bc v6b 2w6,Vancouver,5915022,59,49.2784569,-123.1184779
4537,Hastings,..,library or archives,vancouver,..,2674,hastings st e,..,vancouver,bc,2674 e hastings st,Vancouver,5915022,59,49.2809,-123.05
4541,Hastings Mill Store Museum,museum/gallery,museum,vancouver,..,1575,alma st west,V6R 3P3,vancouver,bc,1575 alma st vancouver bc v6r 3p3,Vancouver,5915022,59,49.272817,-123.185988
4542,Hatch Art Gallery,museum/gallery,gallery,vancouver,..,6133,university blvd,V6T 1Z1,vancouver,bc,6133 university blvd vancouver bc v6t 1z1,Greater Vancouver A,5915020,59,49.266025,-123.249913
4545,Havana Gallery,museum/gallery,gallery,vancouver,..,1212,commercial dr,V5L 3X4,vancouver,bc,1212 commercial dr vancouver bc v5l 3x4,Vancouver,5915022,59,49.273662,-123.069421
4546,Havana Theatre,theatre/performance,theatre/performance and concert hall,vancouver,..,1212,commercial dr,V5L 3X4,vancouver,bc,1212 commercial dr vancouver bc v5l 3x4,Vancouver,5915022,59,49.2737114,-123.0694828
4583,Heffel Gallery Ltd,museum/gallery,gallery,vancouver,..,2247,granville st,V6H 3G1,vancouver,bc,2247 granville st vancouver bc v6h 3g1,Vancouver,5915022,59,49.2654685,-123.1389124
4584,Heidi Zolty,ballet school-16 students/3 instr max combined with bus02-00596,theatre/performance and concert hall,burnaby,..,4528,hastings st,..,burnaby,bc,4528 hastings st,Burnaby,5915025,59,49.28073617,-123.0019167
4592,Hendry Hall Theatre,arts,theatre/performance and concert hall,district of north vancouver,..,..,..,..,vancouver,bc,..,North Vancouver,5915046,59,49.31728509,-123.0514318
4607,Heritage Chiropractic & Laser Therapy,chiropractic & laser therapy,heritage or historic site,township of langley,..,4775,216 st,..,township of langley,bc,..,Langley,5915001,59,49.08889962,-122.6249818
4610,Heritage Christian School,school,heritage or historic site,surrey,..,..,..,..,surrey,bc,..,Surrey,5915004,59,49.06475098,-122.8184636
4611,Heritage Circle Installations Ltd,general contractor,heritage or historic site,township of langley,..,20998,93a ave,..,township of langley,bc,..,Langley,5915001,59,49.17229094,-122.6390509
4614,Heritage Creek Design,residential renovations & design,heritage or historic site,township of langley,..,21736,50 ave,..,township of langley,bc,..,Langley,5915001,59,49.09266268,-122.6209107
4619,Heritage Drywall Ltd,drywall contractor,heritage or historic site,township of langley,..,..,..,..,township of langley,bc,..,Langley,5915001,59,49.1199896,-122.6557541
4620,Heritage Electric Ltd,contractor,heritage or historic site,maple ridge,..,20071,113b ave,..,maple ridge,bc,..,Maple Ridge,5915075,59,49.20973569,-122.666899
4642,Heritage House Rescue & Restoration,construction / specialty trade contractors,heritage or historic site,new westminster,..,1019,third ave,V3M 1P6,new-westminster,bc,1019 third avenew westminster bc v3m 1p6,New Westminster,5915029,59,..,..
4644,Heritage Life Drawing Society,..,heritage or historic site,new westminster,..,927,london place,..,new-westminster,bc,927 london place,New Westminster,5915029,59,49.20097994,-122.958166
4647,Heritage Meats Ltd,organic - butcher shop & specialty store,heritage or historic site,township of langley,1,19689,willowbrook dr,..,township of langley,bc,..,Langley,5915001,59,49.11720987,-122.677601
4655,Heritage Mountain Community Centre,..,heritage or historic site,port moody,..,200,panorama place,..,port moody,bc,200 panorama place,Port Moody,5915043,59,49.30175173,-122.8302526
4682,Heritage Restoration Inc,construction & renovation,heritage or historic site,township of langley,..,22011,maxwell cres,..,township of langley,bc,..,Langley,5915001,59,49.12391227,-122.6138616
4690,Heritage Steel Sales Ltd,steel business,heritage or historic site,township of langley,..,9718,197b st,..,township of langley,bc,..,Langley,5915001,59,49.17880512,-122.6739862
4719,Highland Dance With Miss Kathleen,individual artists,artist,new westminster,..,65,sixth avenue east,..,new-westminster,bc,65 east sixth avenue,New Westminster,5915029,59,49.22121254,-122.9077281
4722,Hill's Native Art,museum/gallery,museum,vancouver,..,165,water st,V6B 1A7,vancouver,bc,165 water st vancouver bc v6b 1a7,Vancouver,5915022,59,49.2844721,-123.1081528
4739,Historic Stewart Farm,attraction,heritage or historic site,surrey,..,..,..,..,surrey,bc,..,Surrey,5915004,59,49.06508535,-122.8420091
4745,Historical Museum,city cultural,museum,new westminster,..,302,royal ave,..,new-westminster,bc,..,New Westminster,5915029,59,49.20762944,-122.9062113
4770,Hornby Island Branch,vancouver island regional library,library or archives,government of british columbia,..,1765,sollans road,V0R 1Z0,coquitlam,bc,1765 sollans road,Comox Valley A,5926021,59,49.53205,-124.664679
4783,Hot Art Wet City,museum/gallery,museum,vancouver,..,2206,main st,V5T 3C7,vancouver,bc,2206 main st vancouver bc v5t 3c7,Vancouver,5915022,59,49.2653981,-123.1007282
4802,Hudson's Hope Public Library,hudson's hope public library,library or archives,government of british columbia,..,9905,dudley drive,V0C 1V0,surrey,bc,9905 dudley drive,Hudson's Hope,5955025,59,56.025816,-121.913228
4830,Ian Tan Gallery,museum/gallery,gallery,vancouver,..,2202,granville st,V6H 4H7,vancouver,bc,2202 granville st vancouver bc v6h 4h7,Vancouver,5915022,59,49.2661646,-123.1383868
4833,Ice Box Gallery,museum/gallery,gallery,vancouver,..,321,railway st,V6A 1A4,vancouver,bc,321 railway st vancouver bc v6a 1a4,Vancouver,5915022,59,49.2846363,-123.097645
4839,Il Museo,museum/gallery,museum,vancouver,..,3075,slocan st,V5M 3E4,vancouver,bc,3075 slocan st vancouver bc v5m 3e4,Vancouver,5915022,59,49.256761,-123.049576
4857,Improv Centre,theatre/performance,theatre/performance and concert hall,vancouver,..,1502,duranleau st,V6H 3S4,vancouver,bc,1502 duranleau st vancouver bc v6h 3s4,Vancouver,5915022,59,49.270764,-123.136248
4879,Institute For Stained Glass In Canada,other,miscellaneous,canadian museums association,..,3545,third avenue west,V6R 1L8,vancouver,bc,3545 west third avenue vancouver british columbia v6r 1l8 canada,New Westminster,5915029,59,49.2023677,-122.9264296
4889,Interurban Gallery,museum/gallery,gallery,vancouver,..,1,hastings st e,V6A 1M9,vancouver,bc,1 e hastings st vancouver bc v6a 1m9,Vancouver,5915022,59,49.2815282,-123.1043161
4891,Inuit Gallery of Vancouver,museum/gallery,gallery,vancouver,..,206,cambie st,V6B 2M9,vancouver,bc,206 cambie st vancouver bc v6b 2m9,Vancouver,5915022,59,49.2842455,-123.1088083
4921,Italian Cultural Centre Society,exhibition or cultural centre,art or cultural centre,canadian museums association,..,3075,slocan street,V5M 3E4,vancouver,bc,3075 slocan street vancouver british columbia v5m 3e4 canada,Vancouver,5915022,59,49.256735,-123.050468
4944,James Black Gallery,museum/gallery,gallery,vancouver,..,144,6th av e,V5T 1J5,vancouver,bc,144 e 6th av vancouver bc v5t1j5,Vancouver,5915022,59,49.2652632,-123.1019214
4948,James Tan Gallery,museum/gallery,gallery,vancouver,..,437,columbia st,V6A 2R9,vancouver,bc,437 columbia st vancouver bc v6a 2r9,Vancouver,5915022,59,49.2810853,-123.1023067
4953,Janet Kvammen,individual artists,artist,new westminster,5,720,sixth street,..,new-westminster,bc,box #5 720 sixth street,New Westminster,5915029,59,49.21466644,-122.9229655
4968,Jennifer Kostuik Gallery,museum/gallery,gallery,vancouver,..,1070,homer st,V6B 2W9,vancouver,bc,1070 homer st vancouver bc v6b 2w9,Vancouver,5915022,59,49.2766268,-123.1211143
4970,Jericho Arts Centre,theatre/performance,theatre/performance and concert hall,vancouver,..,1675,discovery st west,V6R 2K5,vancouver,bc,1675 discovery st vancouver bc v6r 2k5,Vancouver,5915022,59,49.272369,-123.202893
4972,Jerry Mclaughlin,individual artists,artist,new westminster,..,406,buchanan avenue,..,new-westminster,bc,406 buchanan avenue,New Westminster,5915029,59,49.22821217,-122.8960336
4975,Jewish Historical Society of Bc,..,heritage or historic site,canadian museums association,..,6184,ash street,V5Z 3G9,vancouver,bc,6184 ash street vancouver bc v5z 3g9,Vancouver,5915022,59,49.2654274,-123.1174214
4977,Jienelyn Dimatatac,"producing shows, entertainment, concerts",miscellaneous,burnaby,..,5266,dominion st,..,burnaby,bc,5266 dominion st,Burnaby,5915025,59,49.25586782,-122.9878278
4980,Joann Heringer,individual artists,artist,new westminster,..,..,..,..,new-westminster,bc,..,New Westminster,5915029,59,49.19109951,-122.9398739
4982,Joe Fortes,..,library or archives,vancouver,..,870,denman st,..,vancouver,bc,870 denman st,Vancouver,5915022,59,49.2899,-123.1361
5023,Jonina Lynn Kirton,individual artists,artist,new westminster,..,700,park crescent,..,new-westminster,bc,700 park crescent,New Westminster,5915029,59,49.22015475,-122.9124188
5038,Juan De Fuca Branch,greater victoria public library,library or archives,government of british columbia,..,1759,island highway,V9B 1J1,vancouver,bc,1759 island highway,Colwood,5917041,59,48.447522,-123.465822
5055,Judith Berlin,individual artists,artist,new westminster,..,..,..,..,new-westminster,bc,..,New Westminster,5915029,59,49.21098128,-122.9147048
5056,Judith Copland,individual artists,artist,new westminster,..,730,twelfth street,..,new-westminster,bc,730 twelfth street,New Westminster,5915029,59,49.20991708,-122.9342054
5101,Kate Colbourn,individual artists,artist,new westminster,..,..,..,..,new-westminster,bc,..,New Westminster,5915029,59,49.20608943,-122.9475372
5134,Kensington,..,library or archives,vancouver,..,1428,cedar mews,..,vancouver,bc,1428 cedar cottage mews,Vancouver,5915022,59,49.2491,-123.0753
5137,Keremeos Branch,okanagan regional library district,library or archives,government of british columbia,..,638,7th ave,V0X 1N0,new-westminster,bc,638 - 7th ave,Keremeos,5907009,59,49.205148,-119.824315
5139,Kerrisdale,..,library or archives,vancouver,..,2112,42nd av w,..,vancouver,bc,2112 w 42nd av,Vancouver,5915022,59,49.2332,-123.1571
5147,Khot-La-Cha Art Gallery,arts,gallery,district of north vancouver,..,..,..,..,vancouver,bc,..,Capilano 5,5915808,59,49.32265365,-123.1205984
5158,Kimberley Public Library,kimberley public library,library or archives,government of british columbia,..,115,spokane street,V1A 2E5,delta,bc,115 spokane street,Kimberley,5901028,59,49.686154,-115.984693
5210,Kits Point Military History Museum,military museum or fort,museum,canadian museums association,..,1407,laburnam,V6J 3W4,vancouver,bc,1407 laburnam vancouver british columbia v6j 3w4 canada,Delta,5915011,59,49.08699895,-123.0776064
5212,Kitsilano,..,library or archives,vancouver,..,2425,macdonald st,..,vancouver,bc,2425 macdonald st,Vancouver,5915022,59,49.2647,-123.1687
5214,Kizmit Gift Gallery Inc,hand made canadian gifts,gallery,township of langley,150,9220,glover rd,..,township of langley,bc,..,Langley,5915001,59,49.16982326,-122.5778897
5232,Krachel Art,individual artists,artist,new westminster,..,329,devoy street,..,new-westminster,bc,329 devoy street,New Westminster,5915029,59,49.2265597,-122.9016336
5234,Kube Gallery,art gallery,gallery,township of langley,..,23295,mavis ave,..,township of langley,bc,..,Langley,5915001,59,49.17032581,-122.5773185
5237,Kw Atrium Studio,theatre/performance,theatre/performance and concert hall,vancouver,..,351,abbott st,V6B 0G6,vancouver,bc,351 abbott st vancouver bc v6b 0g6,Vancouver,5915022,59,49.282766,-123.1076
5239,Kyle Mckillop,individual artists,artist,new westminster,..,..,..,..,new-westminster,bc,..,New Westminster,5915029,59,49.20747027,-122.9234934
5329,Labyrinth Gallery,museum/gallery,gallery,vancouver,..,112,hastings st e,V6A 4J1,vancouver,bc,112 e hastings st vancouver bc v6a 4j1,Vancouver,5915022,59,49.2810651,-123.1017894
5336,Lac La Hache,cariboo regional district library system,library or archives,government of british columbia,..,4787,clark avenue,V0K 1T0,north vancouver,bc,4787 clark avenue,Cariboo G,5941015,59,51.82892,-121.533203
5392,Langley Centennial Museum,community/regional museum,museum,canadian museums association,..,9135,king street,V1M 2S2,fort langley,bc,po box 800 9135 king street fort langley british columbia v1m 2s2 canada,Langley,5915001,59,49.1666277,-122.5767672
5397,Lanta Meng,individual artists,artist,new westminster,..,906,surrey street,..,new-westminster,bc,906 surrey street,New Westminster,5915029,59,49.23180735,-122.9003687
5417,Lattimer Gallery,museum/gallery,gallery,vancouver,..,1590,2nd av w,V6J 1H2,vancouver,bc,1590 w 2nd av vancouver bc v6j 1h2,Vancouver,5915022,59,49.2696829,-123.1406592
5420,Laura C. Muir Performing Arts Theatre,..,theatre/performance and concert hall,new westminster,..,700,royal avenue,V3L 5B2,new-westminster,bc,700 royal avenue,New Westminster,5915029,59,49.20354979,-122.9128583
5508,Legacy Heritage Consultants,consulting services,heritage or historic site,township of langley,..,23353,francis ave,..,township of langley,bc,..,Langley,5915001,59,49.16507819,-122.5764243
5570,Library,attraction,library or archives,maple ridge,..,..,..,..,maple ridge,bc,..,Maple Ridge,5915075,59,49.2199103,-122.6000192
5572,Library,..,library or archives,white rock,..,15322,buena ave,..,white rock,bc,15322 buena vista ave,White Rock,5915007,59,49.02352685,-122.7973236
5574,Library Link,coquitlam public library,library or archives,government of british columbia,..,..,..,..,burnaby,bc,..,Coquitlam,5915034,59,49.284268,-122.79555
5607,Lillooet Public Library,lillooet area public library,library or archives,government of british columbia,..,930,main street,V0K 1V0,vancouver,bc,recreational centre - 930 main street,Lillooet,5931026,59,50.691476,-121.937524
5618,Lipsett Glazing Systems Inc,heritage window restoration & glazing,heritage or historic site,burnaby,..,7343,buller av,..,burnaby,bc,7343 buller av,Burnaby,5915025,59,49.21694609,-122.9781031
5620,Lisa Bunting,individual artists,artist,new westminster,..,..,..,..,new-westminster,bc,..,New Westminster,5915029,59,49.2030003,-122.950952
5638,Little Mountain Gallery,museum/gallery,gallery,vancouver,..,195,26th av e,V5V 2G8,vancouver,bc,195 e 26th av vancouver bc v5v 2g8,Vancouver,5915022,59,49.2480158,-123.1014023
5654,Lobby Gallery,museum/gallery,gallery,vancouver,..,6476,marine dr,..,vancouver,bc,6476 nw marine dr vancouver bc,Greater Vancouver A,5915020,59,49.267681,-123.259146
5696,Lorrie Wager,individual artists,artist,new westminster,..,226,brookes street,..,new-westminster,bc,226 brookes street,New Westminster,5915029,59,49.19423881,-122.9244548
5735,Lynn Canyon Ecology Centre,natural history or natural sciences museum,museum,canadian museums association,..,3663,park road,V7J 3G3,vancouver,bc,3663 park road lynn canyon park north vancouver british columbia v7j 3g3 canada,North Vancouver,5915046,59,49.3432489,-123.0187218
5738,Lynn Valley Heritage Museum And Archives,arts,museum,district of north vancouver,..,..,..,..,vancouver,bc,..,North Vancouver,5915046,59,49.33827349,-123.0372858
5792,Main Branch,new westminster public library,library or archives,government of british columbia,..,716,6th avenue,V3M 2B3,langley,bc,716 - 6th avenue,New Westminster,5915029,59,49.212106,-122.922293
5900,Make Gallery,museum/gallery,gallery,vancouver,..,257,7th av e,V5T 0B4,vancouver,bc,257 e 7th av vancouver bc v5t 0b4,Vancouver,5915022,59,49.2646046,-123.0992862
5904,Malaspina Printmakers Gallery,museum/gallery,gallery,vancouver,..,1555,duranleau st,V6H 3S3,vancouver,bc,1555 duranleau st vancouver bc v6h 3s3,Vancouver,5915022,59,49.271369,-123.135784
5905,Malkin Bowl,theatre/performance,theatre/performance and concert hall,vancouver,..,610,pipeline rd,V6G 3E2,vancouver,bc,610 pipeline rd vancouver bc v6g 3e2,Vancouver,5915022,59,49.298848,-123.133438
5941,Maple Ridge And Pitt Meadows Arts Council,art gallery,gallery,canadian museums association,..,11944,haney pl,V2X 6G1,maple ridge,bc,11944 haney pl maple ridge british columbia v2x 6g1 canada,Maple Ridge,5915075,59,49.2190735,-122.6002259
5942,Maple Ridge Museum,attraction,museum,maple ridge,..,22520,116 ave,..,maple ridge,bc,..,Maple Ridge,5915075,59,49.21037198,-122.5975721
5954,Margo Prentice Stand-Up Comic,individual artists,artist,new westminster,..,..,..,..,new-westminster,bc,..,New Westminster,5915029,59,49.19867539,-122.9205677
5955,"Margo Prentice, Golden Age Theatre, Artistic Director",..,theatre/performance and concert hall,new westminster,..,..,..,..,new-westminster,bc,..,New Westminster,5915029,59,49.19899662,-122.9210936
5961,Marilyn Norry,individual artists,artist,new westminster,..,..,..,..,new-westminster,bc,..,New Westminster,5915029,59,49.21739643,-122.8954605
5967,Marion Scott Gallery,museum/gallery,gallery,vancouver,..,2423,granville st,V6H 3G5,vancouver,bc,2423 granville st vancouver bc v6h 3g5,Vancouver,5915022,59,49.264079,-123.1386272
5988,Marpole,..,library or archives,vancouver,..,8386,granville st,..,vancouver,bc,8386 granville st,Vancouver,5915022,59,49.2104,-123.14
6004,Marya Mclellan,individual artists,artist,new westminster,..,310,durham street,..,new-westminster,bc,310 durham street,New Westminster,5915029,59,49.21692135,-122.9191299
6017,Massey Theatre,city cultural,theatre/performance and concert hall,new westminster,..,735,eighth ave,..,new-westminster,bc,..,New Westminster,5915029,59,49.21515471,-122.9268431
6019,Massey Theatre Society,"arts, entertainment & recreation / performing arts, spectator sports & related",theatre/performance and concert hall,new westminster,..,735,eighth ave,V3M 2R2,new-westminster,bc,735 eighth avenew westminster bc v3m 2r2,New Westminster,5915029,59,..,..
6064,Mcgill Library,..,library or archives,city of burnaby,..,..,..,..,burnaby,bc,..,Burnaby,5915025,59,49.28269051,-123.0006236
6074,Mcleese Lake,cariboo regional district library system,library or archives,government of british columbia,..,6749,97 highway n,V0L 1P0,new-westminster,bc,6749 highway 97 n,Cariboo D,5941010,59,52.409823,-122.286079
6147,Metro Theatre,theatre/performance,theatre/performance and concert hall,vancouver,..,1370,marine dr,V6P 5Z9,vancouver,bc,1370 sw marine dr vancouver bc v6p 5z9,Vancouver,5915022,59,49.20363,-123.1375815
6170,Midway Public Library,midway public library,library or archives,government of british columbia,..,612,6th avenue,V0H 1M0,vancouver,bc,612 - 6th avenue,Midway,5905037,59,49.006655,-118.772044
6256,Monte Clark Gallery,museum/gallery,gallery,vancouver,..,525,great way,V5T 1E1,vancouver,bc,525 great northern way vancouver bc v5t 1e1,Vancouver,5915022,59,49.26761,-123.0921743
6316,Morris And Helen Belkin Art Gallery,museum/gallery,gallery,vancouver,..,1825,main mall,V6T 1Z2,vancouver,bc,1825 main mall vancouver bc v6t 1z2,Greater Vancouver A,5915020,59,49.2683878,-123.255944
6347,Mount Pleasant,..,library or archives,vancouver,..,1,kingsway,..,vancouver,bc,1 kingsway,Vancouver,5915022,59,49.2643,-123.1002
6383,Muriel Arnason Library (Willowbrook),..,library or archives,township of langley,..,..,..,..,langley,bc,..,Langley,5915001,59,49.12040314,-122.6587791
6388,Murrayville Library,..,library or archives,township of langley,..,..,..,..,langley,bc,..,Langley,5915001,59,49.08975896,-122.6119582
6704,Museum,..,museum,white rock,..,..,..,..,white rock,bc,..,White Rock,5915007,59,49.02169224,-122.8074195
6705,Museum Annex,..,museum,township of langley,..,..,..,..,township of langley,bc,..,Langley,5915001,59,49.16781256,-122.5751332
6709,Museum of Anthropology,art gallery library and/or archives exhibition or cultural centre human history-archaelogy-anthropology or ethnology,museum,canadian museums association,..,6393,west drive north,V6T 1Z2,vancouver,bc,6393 north west marine drive university of british columbia vancouver british columbia v6t 1z2 canada,Greater Vancouver A,5915020,59,49.26946905,-123.2594145
6731,Museum of Original Costume The,interpretation centre other,museum,canadian museums association,..,1489,mcrae avenue,V6H 1V1,vancouver,bc,1489 mcrae avenue vancouver british columbia v6h 1v1 canada,Vancouver,5915022,59,49.25732755,-123.1366058
6734,Museum of Surrey,attraction,museum,surrey,..,..,..,..,surrey,bc,..,Surrey,5915004,59,49.10459322,-122.7322494
6739,Museum of Vancouver,museum/gallery,museum,vancouver,..,1100,chestnut st,V6J 3J9,vancouver,bc,1100 chestnut st vancouver bc v6j 3j9,Vancouver,5915022,59,49.276365,-123.144897
6749,Music Box Music And Theatre Academy,..,theatre/performance and concert hall,new westminster,211,810,quayside drive,..,new-westminster,bc,211 810 quayside drive,New Westminster,5915029,59,49.20012164,-122.9116263
6798,Naramata Branch,okanagan regional library district,library or archives,government of british columbia,..,3580,third street,V0H 1N0,vancouver,bc,3580 third street,Okanagan-Similkameen E,5907049,59,49.596712,-119.600313
6813,National Nikkei Museum - Heritage Centre,"cultural centre, museum & gift shop",museum,burnaby,..,6688,southoaks cr,..,burnaby,bc,6688 southoaks cr,Burnaby,5915025,59,49.21776635,-122.964558
6881,New West Artists Society,..,artist,new westminster,..,..,..,..,new-westminster,bc,..,New Westminster,5915029,59,49.19835904,-122.9200904
6882,New West Heritage Hall,real estate & rental & leasing / rental & leasing services,heritage or historic site,new westminster,..,726,twelfth st,V3M 4J9,new-westminster,bc,726 twelfth stnew westminster bc v3m 4j9,New Westminster,5915029,59,..,..
6883,New Westminster Historical Society,..,heritage or historic site,new westminster,..,..,..,..,new-westminster,bc,..,New Westminster,5915029,59,49.21477756,-122.8958399
6884,New Westminster Hyack Festival Association,civic and social organizations,festival site,new westminster,..,204,sixth,V3L 3A1,new-westminster,bc,204 sixth stnew westminster bc v3l 3a1,New Westminster,5915029,59,..,..
6885,New Westminster Museum & Archives,community/regional museum exhibition or cultural centre historic site-building or park,museum,canadian museums association,..,302,royal ave,V3L 1H7,new-westminster,bc,302 royal ave new westminster british columbia v3l 1h7 canada,New Westminster,5915029,59,49.2078392,-122.9063479
6886,New Westminster Public Library,city cultural,library or archives,new westminster,..,..,..,..,new-westminster,bc,..,New Westminster,5915029,59,49.21167222,-122.9223783
6888,New Westminster Public Library And Archives,library and/or archives exhibition or cultural centre,library or archives,canadian museums association,..,716,6th avenue,V3M 2B3,new-westminster,bc,716 -6th avenue new westminster british columbia v3m 2b3 canada,New Westminster,5915029,59,49.2195661,-122.908408
6901,Newton Cultural Centre,community hall/centre,art or cultural centre,surrey,..,..,..,..,surrey,bc,..,Surrey,5915004,59,49.13323412,-122.8471016
6954,Norman Rothstein Theatre,theatre/performance,theatre/performance and concert hall,vancouver,..,950,41st av w,V5Z 2N7,vancouver,bc,950 w 41st av vancouver bc v5z 2n7,Vancouver,5915022,59,49.233433,-123.126011
6991,North Vancouver Museum & Archives,library and/or archives community/regional museum exhibition or cultural centre,museum,canadian museums association,..,3203,institute road,V7K 3E5,vancouver,bc,3203 institute road north vancouver british columbia v7k 3e5 canada,North Vancouver,5915046,59,49.3380126,-123.0366339
7046,Oblates of Mary Immaculate St. Paul's Province -Oblate Archives,library and/or archives,library or archives,canadian museums association,..,1311,the crescent,V6H 1T7,vancouver,bc,1311 the crescent vancouver british columbia v6h 1t7 canada,Vancouver,5915022,59,49.2556543,-123.1351444
7077,Old Auditorium,theatre/performance,theatre/performance and concert hall,vancouver,..,6344,memorial rd,V6T 1Z2,vancouver,bc,6344 memorial rd vancouver bc v6t 1z2,Greater Vancouver A,5915020,59,49.266904,-123.255994
7108,On Main Gallery,museum/gallery,gallery,vancouver,..,200,20th av e,V5V 1M1,vancouver,bc,200 e 20th av vancouver bc v5v 1m1,Vancouver,5915022,59,49.252773,-123.10056
7138,Or Gallery,museum/gallery,gallery,vancouver,..,555,hamilton st,V6B 2R1,vancouver,bc,555 hamilton st vancouver bc v6b 2r1,Vancouver,5915022,59,49.281406,-123.112094
7152,Orpheum Annex,theatre/performance,theatre/performance and concert hall,vancouver,..,823,seymour st,V6B 5G1,vancouver,bc,823 seymour st vancouver bc v6b 5g1,Vancouver,5915022,59,49.2803528,-123.1194108
7153,Orpheum Theatre,theatre/performance,theatre/performance and concert hall,vancouver,..,601,smithe st,V6B 5G1,vancouver,bc,601 smithe st vancouver bc v6b 5g1,Vancouver,5915022,59,49.279881,-123.12051
7212,Outreach Services,..,library or archives,vancouver,302,345,robson st,..,vancouver,bc,302-345 robson st,Vancouver,5915022,59,49.2797,-123.1156
7232,Pacific Cinémathèque,theatre/performance,theatre/performance and concert hall,vancouver,..,1131,howe st,V6Z 2L7,vancouver,bc,1131 howe st vancouver bc v6z 2l7,Vancouver,5915022,59,49.278552,-123.12627
7234,Pacific Museum of Earth,natural history or natural sciences museum,museum,canadian museums association,..,6339,stores road,V6T 1Z4,vancouver,bc,6339 stores road vancouver british columbia v6t 1z4 canada,Greater Vancouver A,5915020,59,49.2624508,-123.2523425
7236,Pacific Theatre,theatre/performance,theatre/performance and concert hall,vancouver,..,1440,12th av w,V6H 1M8,vancouver,bc,1440 w 12th av vancouver bc v6h 1m8,Vancouver,5915022,59,49.2607195,-123.1372216
7239,Pal Studio Theatre,theatre/performance,theatre/performance and concert hall,vancouver,..,581,cardero st,V6G 3L2,vancouver,bc,581 cardero st vancouver bc v6g 3l2,Vancouver,5915022,59,49.2913154,-123.1295134
7332,Pender Island Public Library,pender island public library,library or archives,government of british columbia,..,4407,bedwell road,V0N 2M0,delta,bc,4407 bedwell harbour road,Southern Gulf Islands,5917029,59,48.797561,-123.281938
7334,Pendulum Gallery,museum/gallery,gallery,vancouver,..,885,georgia st w,V6C 3E8,vancouver,bc,885 w georgia st vancouver bc v6c 3e8,Vancouver,5915022,59,49.283709,-123.119963
7340,Penticton Public Library,penticton public library,library or archives,government of british columbia,..,785,main street,V2A 5E3,richmond,bc,785 main street,Penticton,5907041,59,49.491202,-119.588557
7345,Performance Works,theatre/performance,theatre/performance and concert hall,vancouver,..,1218,cartwright st,V6H 3R8,vancouver,bc,1218 cartwright st vancouver bc v6h 3r8,Vancouver,5915022,59,49.269212,-123.132002
7346,Peri-Laine Nilan,individual artists,artist,new westminster,..,..,..,..,new-westminster,bc,..,New Westminster,5915029,59,49.22380465,-122.9040122
7360,Peter Kiss Gallery,museum/gallery,gallery,vancouver,..,1327,railspur alley,V6H 4G9,vancouver,bc,1327 railspur alley vancouver bc v6h 4g9,Vancouver,5915022,59,49.2701374,-123.1337947
7361,Peter Lojewski,individual artists,artist,new westminster,..,327,boyne street,..,new-westminster,bc,327 boyne street,New Westminster,5915029,59,49.19162099,-122.939402
7376,Petley Jones Gallery,museum/gallery,gallery,vancouver,..,554,6th av w,V6J 1R2,vancouver,bc,554 w 6th av vancouver bc v6j 1r2,Vancouver,5915022,59,49.2652275,-123.0917358
7419,Pitt Meadows Museum,library and/or archives community/regional museum human history-archaelogy-anthropology or ethnology industry/trade museum,museum,canadian museums association,..,12294,harris rd,V3Y 2E9,pitt meadows,bc,12294 harris rd pitt meadows british columbia v3y 2e9 canada,Pitt Meadows,5915070,59,49.2649397,-122.6892698
7420,Pitt Meadows Public Library,fraser valley regional library,library or archives,government of british columbia,..,12047,harris road,V3Y 1Z2,langley,bc,12047 harris road,Pitt Meadows,5915070,59,49.221363,-122.68959
7433,Plaskett Gallery,..,gallery,new westminster,..,735,eighth avenue,V3M 2R2,new-westminster,bc,735 eighth avenue,New Westminster,5915029,59,49.21561134,-122.927494
7471,Points West Heritage Consulting Ltd,office for heritage consultant,heritage or historic site,township of langley,..,23531,8 ave,..,township of langley,bc,..,Langley,5915001,59,49.01690996,-122.5728804
7497,Port Coquitlam Heritage & Cultural Society,library and/or archives community/regional museum exhibition or cultural centre historical society interpretation centre,museum,canadian museums association,150,2248,mcallister avenue ,V3C 2A5,port coquitlam,bc,150-2248 mcallister avenue port coquitlam british columbia v3c 2a5 canada,Coquitlam,5915034,59,..,..
7513,Port Mcneill Branch,vancouver island regional library,library or archives,government of british columbia,4,1584,broughton blvd,V0N 2R0,vancouver,bc,4 - 1584 broughton blvd.,Port McNeill,5943012,59,50.589665,-127.08667
7514,Port Moody Public Library,port moody public library,library or archives,government of british columbia,..,100,newport drive,V3H 3E1,new-westminster,bc,100 newport drive,Port Moody,5915043,59,49.282312,-122.829572
7517,Port Moody Station Museum,..,museum,port moody,..,2734,murray street,..,port moody,bc,2734 murray street,Port Moody,5915043,59,49.27919001,-122.8507565
7518,Port Renfrew Branch,vancouver island regional library,library or archives,government of british columbia,..,6633,deering road,V0S 1K0,vancouver,bc,6633 deering road,Gordon River 2,5917815,59,48.576422,-124.40907
7564,Presentation House Gallery,arts,gallery,district of north vancouver,..,..,..,..,vancouver,bc,..,North Vancouver,5915051,59,49.31545021,-123.080156
7600,Princeton Branch,okanagan regional library district,library or archives,government of british columbia,..,107,vermillion avenue,V0X 1W0,port moody,bc,107 vermillion avenue,Princeton,5907024,59,49.459208,-120.508549
7635,Qualicum Beach Branch,vancouver island regional library,library or archives,government of british columbia,..,660,primrose street,V9K 1S9,surrey,bc,660 primrose street,Qualicum Beach,5921023,59,49.347486,-124.444331
7640,Queen Elizabeth Park,historic site-building or park,heritage or historic site,canadian museums association,..,4600,cambie st,V5Y 2M4,vancouver,bc,4600 cambie st vancouver british columbia v5y 2m4 canada,Vancouver,5915022,59,49.2420698,-123.1137689
7641,Queen Elizabeth Theatre,theatre/performance,theatre/performance and concert hall,vancouver,..,650,hamilton st,V6B 5N6,vancouver,bc,650 hamilton st vancouver bc v6b 5n6,Vancouver,5915022,59,49.28046,-123.113401
7676,Radium Hot Springs Public Library,radium hot springs public library,library or archives,government of british columbia,..,2,radium street west,V0A 1M0,burnaby,bc,unit #2 radium plaza main street west,Radium Hot Springs,5901040,59,50.621981,-116.071315
7702,Razzberry Art And Design,individual artists,artist,new westminster,..,625,second street,..,new-westminster,bc,625 second street,New Westminster,5915029,59,49.21777301,-122.9151126
7751,Remington Gallery And Studio,museum/gallery,gallery,vancouver,..,108,hastings st e,V6A 4J1,vancouver,bc,108 e hastings st vancouver bc v6a 4j1,Vancouver,5915022,59,49.281336,-123.1019396
7756,Rennie Collection At Wing Sang,museum/gallery,museum,vancouver,..,51,pender st e,V6A 1S9,vancouver,bc,51 e pender st vancouver bc v6a 1s9,Vancouver,5915022,59,49.2806995,-123.1031317
7782,Revelstoke Branch,okanagan regional library district,library or archives,government of british columbia,..,605,campbell avenue,V0E 2S0,richmond,bc,605 campbell avenue,Revelstoke,5939019,59,50.99883,-118.198969
7792,Richard R. Carswell,individual artists,artist,new westminster,..,309,eighth street,..,new-westminster,bc,309 eighth street,New Westminster,5915029,59,49.2071339,-122.9183114
7797,Richmond Art Gallery,art gallery,gallery,canadian museums association,180,7700,minoru gate,V6Y 1R9,richmond,bc,180-7700 minoru gate richmond british columbia v6y 1r9 canada,Richmond,5915015,59,49.1641205,-123.1411334
7801,Richmond Museum,community/regional museum exhibition or cultural centre interpretation centre,museum,canadian museums association,180,7700,minoru gate,V6Y 1R9,richmond,bc,180-7700 minoru gate richmond british columbia v6y 1r9 canada,Richmond,5915015,59,49.1641205,-123.1411334
7802,Richmond Nature Park,..,miscellaneous,canadian museums association,..,11851,westminster highway,V6X 1B4,richmond,bc,11851 westminster highway richmond british columbia v6x 1b4 canada,Richmond,5915015,59,49.1699053,-123.0465846
7806,Rickshaw Theatre,theatre/performance,theatre/performance and concert hall,vancouver,..,254,hastings st e,V6A 1P1,vancouver,bc,254 e hastings st vancouver bc v6a 1p1,Vancouver,5915022,59,49.281272,-123.0983094
7821,Rio Theatre,theatre/performance,theatre/performance and concert hall,vancouver,..,1660,broadway e,V5N 1W1,vancouver,bc,1660 e broadway vancouver bc v5n 1w1,Vancouver,5915022,59,49.2620042,-123.0704852
7850,Rob Fee,individual artists,artist,new westminster,..,..,..,..,new-westminster,bc,..,New Westminster,5915029,59,49.20885978,-122.9424084
7879,Roedde House,museum/gallery,museum,vancouver,..,1415,barclay st west,V6G 1J6,vancouver,bc,1415 barclay st vancouver bc v6g 1j6,Vancouver,5915022,59,49.286863,-123.132187
7916,Rossland Public Library Association,rossland public library association,library or archives,government of british columbia,..,2180,columbia avenue,V0G 1Y0,surrey,bc,2180 columbia avenue,Rossland,5905023,59,49.076853,-117.797294
7933,Roy Barnett Recital Hall,theatre/performance,theatre/performance and concert hall,vancouver,..,6361,memorial rd,V6T 1Z2,vancouver,bc,6361 memorial rd vancouver bc v6t 1z2,Greater Vancouver A,5915020,59,49.267411,-123.256613
7954,Royal City Musical Theatre Company,..,theatre/performance and concert hall,new westminster,..,..,..,..,new-westminster,bc,c/o massey theatre,New Westminster,5915029,59,49.21480078,-122.9272501
7955,Royal City Youth Ballet,..,theatre/performance and concert hall,new westminster,..,511,columbia street,..,new-westminster,bc,511 columbia street,New Westminster,5915029,59,49.20406694,-122.9069895
7967,Royal Principal Ballet Academy Ltd,fine arts schools,theatre/performance and concert hall,new westminster,..,511,columbia st,V3L 1B2,new-westminster,bc,a-511 columbia stnew westminster bc v3l 1b2,New Westminster,5915029,59,..,..
8079,Salmo Public Library,salmo public library,library or archives,government of british columbia,..,106,4th street,V0G 1Z0,vancouver,bc,106 - 4th street,Nakusp,5903050,59,50.243104,-117.797759
8081,Salmon Arm Branch,okanagan regional library district,library or archives,government of british columbia,..,1151,10th avenue sw,V1E 1T3,surrey,bc,1151 - 10th avenue sw,Salmon Arm,5939032,59,50.6926,-119.298671
8095,Samson V Maritime Museum,maritime or marine museum,museum,canadian museums association,..,880,quayside drive,V3M 6G1,new-westminster,bc,880 quayside drive new westminster british columbia v3m 6g1 canada,New Westminster,5915029,59,49.2009132,-122.9278272
8096,Samson V Museum,city cultural,museum,new westminster,..,900,quayside dr,..,new-westminster,bc,..,New Westminster,5915029,59,49.19955079,-122.9117624
8106,Sardis Library,fraser valley regional library,library or archives,government of british columbia,..,5819,tyson road,V2R 3R6,north vancouver,bc,5819 tyson road,Chilliwack,5909020,59,49.10726,-121.977412
8119,Satellite Gallery,museum/gallery,gallery,vancouver,..,560,seymour st,V6B 3J5,vancouver,bc,560 seymour st vancouver bc v6b 3j5,Vancouver,5915022,59,49.283183,-123.114585
8137,Sayward Branch,vancouver island regional library,library or archives,government of british columbia,c,641,kelsey way,V0P 1R0,north vancouver,bc,641c kelsey way,Sayward,5924039,59,50.378652,-125.95894
8163,Science World At Telus World of Science,museum/gallery,museum,vancouver,..,1455,québec st,V6A 3Z7,vancouver,bc,1455 québec st vancouver bc v6a 3z7,Vancouver,5915022,59,49.273743,-123.103652
8165,Scotiabank Dance Centre - Faris Family Studio,theatre/performance,theatre/performance and concert hall,vancouver,..,677,davie st,V6B 2G6,vancouver,bc,677 davie st vancouver bc v6b 2g6,Vancouver,5915022,59,49.277065,-123.125711
8182,Seaforth Highlanders of Canada Regimental Museum And Archives,military museum or fort,museum,canadian museums association,..,1650,burrard street,V6J 3G4,vancouver,bc,the seaforth armoury 1650 burrard street vancouver british columbia v6j 3g4 canada,Vancouver,5915022,59,49.27113215,-123.1448866
8202,Semiahmoo Library,surrey public library,library or archives,government of british columbia,..,1815,152nd street,V4A 9Y9,vancouver,bc,1815 - 152nd street,Surrey,5915004,59,49.035002,-122.801187
8216,Seymour Art Gallery,arts,gallery,district of north vancouver,..,..,..,..,vancouver,bc,..,North Vancouver,5915046,59,49.32698259,-122.9502844
8223,Shadows & Dreams Theatre Company,..,theatre/performance and concert hall,new westminster,..,..,..,..,new-westminster,bc,..,New Westminster,5915029,59,49.21725034,-122.9100848
8277,Silk Purse Arts Centre,arts,miscellaneous,district of north vancouver,..,..,..,..,vancouver,bc,..,West Vancouver,5915055,59,49.32737605,-123.1621091
8278,Silvana Mcnulty Garden Gals,individual artists,artist,new westminster,..,736,fifth street,..,new-westminster,bc,736 fifth street,New Westminster,5915029,59,49.21622673,-122.9228111
8286,Simon Fraser Gallery,art gallery,gallery,canadian museums association,..,8888,university dr,V5A 1S6,burnaby,bc,simon fraser university 8888 university dr burnaby british columbia v5a 1s6 canada,Port Moody,5915043,59,49.2768784,-122.8667274
8288,Simon Fraser University Museum of Archaeology & Ethnology,human history-archaelogy-anthropology or ethnology,museum,canadian museums association,..,8888,barnet highway,V5A 1S6,burnaby,bc,8888 barnet highway burnaby british columbia v5a 1s6 canada,Port Moody,5915043,59,49.2768784,-122.8667274
8332,Skwachàys Lodge Gallery,museum/gallery,gallery,vancouver,..,31,pender st w,V6B 1R3,vancouver,bc,31 w pender st vancouver bc v6b 1r3,Vancouver,5915022,59,49.280978,-123.106127
8371,Société Historique Francophone De La Colombie-Britannique,library and/or archives exhibition or cultural centre other,library or archives,canadian museums association,228f,1555,7e av o,V6J 1S1,vancouver,bc,maison de la francophonie 228f 1555 7e av o vancouver british columbia v6j 1s1 canada,Vancouver,5915022,59,..,..
8382,Sointula Branch,vancouver island regional library,library or archives,government of british columbia,..,280,1st street,V0N 3E0,langley,bc,280 1st street,Mount Waddington A,5943037,59,50.641414,-127.028812
8405,South Hill,..,library or archives,vancouver,..,6076,fraser st,..,vancouver,bc,6076 fraser st,Vancouver,5915022,59,49.2295,-123.0903
8440,Spencer Goring,individual artists,artist,new westminster,..,310,durham street,..,new-westminster,bc,310 durham street,New Westminster,5915029,59,49.21692135,-122.9191299
8444,Spirit Wrestler Gallery,museum/gallery,gallery,vancouver,..,47,water st,V6B 1A1,vancouver,bc,47 water st vancouver bc v6b 1a1,Vancouver,5915022,59,49.2837331,-123.105348
8476,St James Community Square,theatre/performance,theatre/performance and concert hall,vancouver,..,3214,10th av w,V6K 2L2,vancouver,bc,3214 w 10th av vancouver bc v6k 2l2,Vancouver,5915022,59,49.2630518,-123.1765215
8553,St. Roch National Historic Site C/O Vancouver Maritime Museum,historic site-building or park,museum,canadian museums association,..,..,..,V6J 1A3,vancouver,bc,vanier park vancouver british columbia v6j 1a3 canada,Vancouver,5915022,59,49.2762481,-123.1430717
8565,Stagecoach Theatre Arts School,performing arts school,theatre/performance and concert hall,township of langley,..,22930,48 ave,..,township of langley,bc,..,Langley,5915001,59,49.0876119,-122.5894912
8570,Stanley Park Nature House,museum/gallery,museum,vancouver,..,..,..,..,vancouver,bc,stanley park vancouver bc,Vancouver,5915022,59,49.294408,-123.137914
8614,Steveston Museum And Visitor Centre,community/regional museum historic site-building or park other,museum,canadian museums association,..,3811,moncton street,V7E 3A7,richmond,bc,3811 moncton street richmond british columbia v7e 3a7 canada,Richmond,5915015,59,49.1253077,-123.182869
8653,Strathcona Branch,vancouver public library,library or archives,government of british columbia,..,592,pender street east,V6A 1V5,richmond,bc,592 east pender street,Vancouver,5915022,59,49.280215,-123.091958
8676,Studio Theatre At Surrey Arts Centre,attraction,theatre/performance and concert hall,surrey,..,..,..,..,surrey,bc,..,Surrey,5915004,59,49.16239448,-122.8420413
8700,Sum Gallery,museum/gallery,gallery,vancouver,..,268,keefer st,V6A 1X5,vancouver,bc,268 keefer st vancouver bc v6a 1x5,Vancouver,5915022,59,49.279234,-123.098127
8717,Surrey Art Gallery,attraction,gallery,surrey,..,..,..,..,surrey,bc,..,Surrey,5915004,59,49.16239467,-122.8421785
8718,Surrey Little Theatre,attraction,theatre/performance and concert hall,surrey,..,..,..,..,surrey,bc,..,Surrey,5915004,59,49.13005476,-122.7128784
8719,Surrey Museum & Archives,community/regional museum,museum,canadian museums association,..,17710,56a avenue,V3S 5H8,surrey,bc,17710-56a avenue surrey british columbia v3s 5h8 canada,Surrey,5915004,59,49.1049308,-122.7318198
8721,Susan Mccallum,artist,artist,burnaby,..,7231,antrim av,..,burnaby,bc,7231 antrim av,Burnaby,5915025,59,49.21822879,-122.9856531
8746,Synthesis Consulting Ltd,children's art centre visual and performing arts programs,art or cultural centre,burnaby,..,4562,hastings st,..,burnaby,bc,4562 hastings st,Burnaby,5915025,59,49.28073295,-123.0008875
8775,Taylor Public Library,taylor public library,library or archives,government of british columbia,..,10008,104 ave,V0C 2K0,surrey,bc,10008 - 104 ave,Taylor,5955030,59,56.153335,-120.683744
8777,Teck Gallery,museum/gallery,gallery,vancouver,..,515,hastings st w,V6B 0B2,vancouver,bc,515 w hastings st vancouver bc v6b 0b2,Vancouver,5915022,59,49.2841655,-123.1119735
8808,Terry Erickson,individual artists,artist,new westminster,..,234,fenton street,..,new-westminster,bc,234 fenton street,New Westminster,5915029,59,49.18945071,-122.9349707
8911,The Act Arts Centre & Theatre,attraction,theatre/performance and concert hall,maple ridge,..,11944,haney pl,..,maple ridge,bc,..,Maple Ridge,5915075,59,49.219156,-122.5983229
8913,The Apartment,museum/gallery,museum,vancouver,b,119,pender st e,V6A 1T6,vancouver,bc,119b e pender st vancouver bc v6a 1t6,Vancouver,5915022,59,49.2804859,-123.1015866
8915,The Art of Law Gallery,..,gallery,new westminster,..,711,columbia street,..,new-westminster,bc,711 columbia street,New Westminster,5915029,59,49.20227237,-122.9105812
8922,The Bernie Legge Theatre,..,theatre/performance and concert hall,new westminster,..,..,..,..,new-westminster,bc,..,New Westminster,5915029,59,49.21419488,-122.9031079
8946,The Fort Gallery,art gallery,gallery,township of langley,..,9048,glover rd,..,township of langley,bc,..,Langley,5915001,59,49.16684947,-122.5811598
8963,The Ironworks Studio,theatre/performance,theatre/performance and concert hall,vancouver,..,235,alexander st,V6A 1C2,vancouver,bc,235 alexander st vancouver bc v6a 1c2,Vancouver,5915022,59,49.284153,-123.099046
8976,The Michael J Fox Theatre Society,community theatre,theatre/performance and concert hall,burnaby,..,5455,rumble st,..,burnaby,bc,5455 rumble st,Burnaby,5915025,59,49.21649647,-122.9852237
8982,The Mojo Stars,individual artists,artist,new westminster,..,530,columbia street,..,new-westminster,bc,530 columbia street,New Westminster,5915029,59,49.20341367,-122.9069978
8997,The Polygon Gallery,art gallery,gallery,canadian museums association,..,101,carrie court,V7M 3J4,vancouver,bc,101 carrie cates court north vancouver british columbia v7m 3j4 canada,North Vancouver,5915051,59,49.310375,-123.0805596
9013,The Royal Westminster Regiment Museum,..,museum,new westminster,..,530,queens avenue,..,new-westminster,bc,530 queens avenue,New Westminster,5915029,59,49.20713369,-122.9119034
9118,Tom Lee Music Recital Hall,theatre/performance,theatre/performance and concert hall,vancouver,..,929,granville st,V6Z 1L3,vancouver,bc,929 granville st vancouver bc v6z 1l3,Vancouver,5915022,59,49.2800125,-123.1224555
9122,Tommy Douglas Branch,burnaby public library,library or archives,government of british columbia,..,7311,kingsway,V5E 1G8,vancouver,bc,7311 kingsway,Burnaby,5915025,59,49.281898,-123.000644
9123,Tommy Douglas Library,..,library or archives,city of burnaby,..,..,..,..,burnaby,bc,..,Burnaby,5915025,59,49.21875996,-122.95235
9153,Tracey Lawrence Gallery,museum/gallery,gallery,vancouver,..,1531,4th av w,V6J 1L6,vancouver,bc,1531 w 4th av vancouver bc v6j 1l6,Vancouver,5915022,59,49.267975,-123.139461
9171,Trench Gallery,museum/gallery,gallery,vancouver,..,148,alexander st,V6A 1B5,vancouver,bc,148 alexander st vancouver bc v6a 1b5,Vancouver,5915022,59,49.2839469,-123.1010921
9181,Trillium North Park,museum/gallery,museum,vancouver,..,699,national av,..,vancouver,bc,699 national av vancouver bc,Vancouver,5915022,59,49.274169,-123.09379
9199,Tumbler Ridge Public Library,tumbler ridge public library,library or archives,government of british columbia,..,340,front street,V0C 2W0,pitt meadows,bc,340 front street,Tumbler Ridge,5955003,59,55.125356,-121.000472
9208,Twilight Drive-In Theatre Ltd,drive in theatre,theatre/performance and concert hall,township of langley,100,3350,260 st,..,township of langley,bc,..,Langley,5915001,59,49.06243557,-122.5021659
9218,UBC Botanical Garden,natural history or natural sciences museum other,museum,canadian museums association,..,6804,marine drive,V6T 1Z4,vancouver,bc,6804 southwest marine drive vancouver british columbia v6t 1z4 canada,Greater Vancouver A,5915020,59,49.2538228,-123.2473213
9219,UBC Museum of Anthropology,museum/gallery,museum,vancouver,..,6393,marine dr,V6T 1Z2,vancouver,bc,6393 nw marine dr vancouver bc v6t 1z2,Greater Vancouver A,5915020,59,49.26907,-123.259174
9244,Underwater Archaeological Society of British Columbia,historical society maritime or marine museum,museum,canadian museums association,..,1905,ogden avenue,V6J 1A3,vancouver,bc,1905 ogden avenue vancouver british columbia v6j 1a3 canada,Vancouver,5915022,59,49.277482,-123.1477655
9252,Unit/Pitt Projects,museum/gallery,museum,vancouver,..,236,pender st e,V6A 1T7,vancouver,bc,236 e pender st vancouver bc v6a 1t7,Vancouver,5915022,59,49.280103,-123.098813
9255,United Church of Canada B.C. Conference Archives,library and/or archives,library or archives,canadian museums association,..,2195,45th west,V6M 2J2,vancouver,bc,2195 west 45th vancouver british columbia v6m 2j2 canada,Vancouver,5915022,59,49.2301609,-123.1260872
9269,University of Bc: Charles Woodward Memorial Room,historical society natural history or natural sciences museum,museum,canadian museums association,..,..,..,V6T 1Z3,vancouver,bc,woodward biomedical library vancouver british columbia v6t 1z3 canada,Greater Vancouver A,5915020,59,49.2645689,-123.2476074
9270,University of British Columbia: Rare Books And Special Collections,library and/or archives,library or archives,canadian museums association,..,1961,east mall,V6T 1Z1,vancouver,bc,1961 east mall vancouver british columbia v6t 1z1 canada,Greater Vancouver A,5915020,59,49.26761935,-123.252761
9297,Uno Langmann Limited Fine Arts,museum/gallery,museum,vancouver,..,2117,granville st,V6H 3E9,vancouver,bc,2117 granville st vancouver bc v6h 3e9,Vancouver,5915022,59,49.2666423,-123.1388698
9316,Vagabond Theatre/Fisheries Exibition Building,city cultural,theatre/performance and concert hall,new westminster,..,600,first st,..,new-westminster,bc,..,New Westminster,5915029,59,49.21416596,-122.9031593
9324,Valerie Mcrae,individual artists,artist,new westminster,..,..,..,..,new-westminster,bc,..,New Westminster,5915029,59,49.19867539,-122.9205677
9331,Van Dop Gallery,..,gallery,new westminster,..,421,richmond street,..,new-westminster,bc,421 richmond street,New Westminster,5915029,59,49.23107737,-122.898803
9332,Van Dusen Botanical Garden,museum/gallery,museum,vancouver,..,5251,oak st,V6M 4H1,vancouver,bc,5251 oak st vancouver bc v6m 4h1,Vancouver,5915022,59,49.238472,-123.128627
9336,Vancity Theatre,theatre/performance,theatre/performance and concert hall,vancouver,..,1181,seymour st,V6B 3M7,vancouver,bc,1181 seymour st vancouver bc v6b 3m7,Vancouver,5915022,59,49.276974,-123.124732
9337,Vancouver Access Artist Run Centre,museum/gallery,museum,vancouver,..,222,georgia st e,V6A 1Z7,vancouver,bc,222 e georgia st vancouver bc v6a 1z7,Vancouver,5915022,59,49.278453,-123.098757
9339,Vancouver Art Gallery,museum/gallery,gallery,vancouver,..,750,hornby st,V6Z 2H7,vancouver,bc,750 hornby st vancouver bc v6z 2h7,Vancouver,5915022,59,49.283158,-123.120932
9340,Vancouver Art Gallery Offsite,museum/gallery,gallery,vancouver,..,1100,georgia st w,V6E 0A8,vancouver,bc,1100 w georgia st vancouver bc v6e 0a8,Vancouver,5915022,59,49.286205,-123.124298
9341,Vancouver Biennale,museum/gallery,museum,vancouver,..,290,3rd av w,V5Y 1G1,vancouver,bc,290 w 3rd av vancouver bc v5y 1g1,Vancouver,5915022,59,49.268419,-123.110397
9342,Vancouver Contemporary Art Gallery,museum/gallery,gallery,vancouver,..,555,nelson st,V6B 6R5,vancouver,bc,555 nelson st vancouver bc v6b 6r5,Vancouver,5915022,59,49.278238,-123.121183
9344,Vancouver East Cultural Centre - Vancity Culture Lab,theatre/performance,theatre/performance and concert hall,vancouver,..,1895,venables st,V5L 2H6,vancouver,bc,1895 venables st vancouver bc v5l 2h6,Vancouver,5915022,59,49.276676,-123.065816
9348,Vancouver Holocaust Education Centre,museum/gallery,museum,vancouver,..,950,41st av w,V5Z 2N7,vancouver,bc,950 w 41st av vancouver bc v5z 2n7,Vancouver,5915022,59,49.233442,-123.126013
9353,Vancouver Island University Museum of Natural History,community/regional museum natural history or natural sciences museum,museum,canadian museums association,..,900,5th street,V9R 5S5,vancouver,bc,900 5th street vancouver island university building 370 nanaimo british columbia v9r 5s5 canada,Vancouver,5915022,59,..,..
9355,Vancouver Maritime Museum,museum/gallery,museum,vancouver,..,1905,ogden av,V6J 1A3,vancouver,bc,1905 ogden av vancouver bc v6j 1a3,Vancouver,5915022,59,49.277465,-123.147587
9356,Vancouver Naval Museum,military museum or fort,museum,canadian museums association,..,1200,stanley park drive,V7V 3P1,vancouver,bc,1200 stanley park drive vancouver british columbia v7v 3p1 canada,Vancouver,5915022,59,49.2949211,-123.1485038
9357,Vancouver Playhouse Theatre,theatre/performance,theatre/performance and concert hall,vancouver,..,600,hamilton st,V6B 6A1,vancouver,bc,600 hamilton st vancouver bc v6b 6a1,Vancouver,5915022,59,49.2808,-123.112328
9359,Vancouver Police Museum,museum/gallery,museum,vancouver,..,240,cordova st e,V6A 1L3,vancouver,bc,240 e cordova st vancouver bc v6a 1l3,Vancouver,5915022,59,49.282247,-123.0987999
9360,Vancouver Public Library,museum/gallery,library or archives,vancouver,..,350,georgia st w,V6B 6B1,vancouver,bc,350 w georgia st vancouver bc v6b 6b1,Vancouver,5915022,59,49.2804357,-123.1151119
9363,Vancouver Symphony Orchestra School of Music - Recital Hall (Pyatt Hall),theatre/performance,theatre/performance and concert hall,vancouver,..,843,seymour st,V6B 3L4,vancouver,bc,843 seymour st vancouver bc v6b 3l4,Vancouver,5915022,59,49.280207,-123.119792
9441,Vivo Media Arts Centre,art gallery library and/or archives other,library or archives,canadian museums association,..,2625,kaslo st,V5M 3G9,vancouver,bc,2625 kaslo st. vancouver british columbia v5m 3g9 canada,Vancouver,5915022,59,49.2847803,-123.0466984
9442,Vogue Theatre,theatre/performance,theatre/performance and concert hall,vancouver,..,918,granville st,V6Z 1L2,vancouver,bc,918 granville st vancouver bc v6z 1l2,Vancouver,5915022,59,49.2799671,-123.1218259
9505,Waterfront Theatre,theatre/performance,theatre/performance and concert hall,vancouver,..,1412,cartwright st,V6H 3R7,vancouver,bc,1412 cartwright st vancouver bc v6h 3r7,Vancouver,5915022,59,49.270119,-123.135508
9569,West Vancouver Museum,art gallery library and/or archives community/regional museum,museum,canadian museums association,..,680,17th st west,V7V 3T2,vancouver,bc,680 -17th st west vancouver british columbia v7v 3t2 canada,West Vancouver,5915055,59,49.3335234,-123.1601822
9570,West Vancouver Museum And Archives,arts,museum,district of north vancouver,..,..,..,..,vancouver,bc,..,West Vancouver,5915055,59,49.33068623,-123.1640427
9580,Western Front - Gallery,museum/gallery,gallery,vancouver,..,303,8th av e,V5T 1S1,vancouver,bc,303 e 8th av vancouver bc v5t 1s1,Vancouver,5915022,59,49.263916,-123.098654
9581,Western Front - Luxe Hall,theatre/performance,theatre/performance and concert hall,vancouver,..,303,8th av e,V5T 1S1,vancouver,bc,303 e 8th av vancouver bc v5t 1s1,Vancouver,5915022,59,49.263894,-123.098716
9605,Whistler Public Library,whistler public library,library or archives,government of british columbia,..,4329,main street,V0N 1B4,delta,bc,4329 main street,Whistler,5931020,59,50.117127,-122.956295
9623,White Rock Museum And Archives,library and/or archives community/regional museum,museum,canadian museums association,..,14970,marine drive,V4B 1C4,white rock,bc,14970 marine drive white rock british columbia v4b 1c4 canada,White Rock,5915007,59,49.0221917,-122.8086382
9644,Wil Aballe Art Projects,museum/gallery,museum,vancouver,..,1356,frances st,V5L 1Y9,vancouver,bc,1356 frances st vancouver bc v5l 1y9,Vancouver,5915022,59,49.2794145,-123.0757838
9670,Willowbrook Art Gallery,art gallery & framing,gallery,township of langley,302,19705,fraser hwy,..,township of langley,bc,..,Langley,5915001,59,49.11490646,-122.6757778
9690,Winsor Gallery,museum/gallery,gallery,vancouver,..,258,1st ave e,V5T 1A6,vancouver,bc,258 e 1st ave vancouver bc v5t 1a6,Vancouver,5915022,59,49.2689553,-123.0984496
9694,Wise Club Hall,theatre/performance,theatre/performance and concert hall,vancouver,..,1882,adanac st,V5L 2E2,vancouver,bc,1882 adanac st vancouver bc v5l 2e2,Vancouver,5915022,59,49.2772414,-123.0660915
9728,Woodward's Atrium,theatre/performance,theatre/performance and concert hall,vancouver,..,111,hastings st w,V6B 1H4,vancouver,bc,111 w hastings st vancouver bc v6b 1h4,Vancouver,5915022,59,49.282541,-123.107579
9740,Woss Branch,vancouver island regional library,library or archives,government of british columbia,b,4503,railway ave,V0N 3P0,richmond,bc,4503b railway ave,Mount Waddington D,5943033,59,50.217,-126.59
9753,Yarrow Library,fraser valley regional library,library or archives,government of british columbia,..,4670,community street,V2R 5E1,north vancouver,bc,4670 community street,Chilliwack,5909020,59,49.086416,-122.052378
9766,York Theatre,theatre/performance,theatre/performance and concert hall,vancouver,..,639,commercial dr,V5L 2W2,vancouver,bc,639 commercial dr vancouver bc v5l 2w2,Vancouver,5915022,59,49.2786795,-123.0707458
9780,Yuk Yuk's Comedy Club,theatre/performance,theatre/performance and concert hall,vancouver,..,2837,cambie st,V5Z 3Y8,vancouver,bc,2837 cambie st vancouver bc v5z 3y8,Vancouver,5915022,59,49.2600654,-123.1151069
9787,Zemi Cultural Heritage Services,office for heritage consulting,heritage or historic site,township of langley,23,21150,76a ave,..,township of langley,bc,..,Langley,5915001,59,49.14061431,-122.63683
